{"type":"FeatureCollection","features":[{"type":"Feature","id":13544,"geometry":{"type":"Polygon","coordinates":[[[-79.89446336146378,40.43341892910016],[-79.88564251802475,40.43678737054497],[-79.88275096958427,40.4361538440804],[-79.88263261744389,40.43607976966722],[-79.8818686739566,40.43562034895019],[-79.88112130708124,40.43517125851754],[-79.88043066522283,40.434754813386675],[-79.88037152014451,40.434718661557746],[-79.87999329257897,40.434496855887936],[-79.87959805182027,40.434250534882466],[-79.87925807451951,40.43404128141996],[-79.87914976644235,40.43397730922805],[-79.8775934343143,40.435357797290486],[-79.8764954693566,40.43468662587795],[-79.87439900360441,40.43529937902553],[-79.87397017483723,40.433806923141496],[-79.87240337643779,40.43338492424996],[-79.86907815820906,40.4322217424796],[-79.86643051045303,40.431170777779535],[-79.8613529387181,40.43840752753344],[-79.86482906223647,40.437538097827456],[-79.86373159764038,40.43821945750001],[-79.86241053518354,40.43888057940234],[-79.86162821036892,40.439420282647184],[-79.8618563662814,40.44163924335576],[-79.85793276586888,40.44267378203266],[-79.85862192550708,40.44522390502624],[-79.85648000679814,40.44552533840152],[-79.85532698050342,40.44568752874702],[-79.85413920378024,40.44585466275206],[-79.85439265265786,40.452900141964875],[-79.85439608512056,40.45337281705427],[-79.85440227181792,40.453586201231545],[-79.85558694755674,40.453564633647694],[-79.85562506846415,40.45478531163743],[-79.8555700942637,40.456434768987535],[-79.85554222223539,40.45744540289108],[-79.85693605002685,40.45742001158113],[-79.85757729173116,40.45954581499102],[-79.85980276184637,40.459510988807686],[-79.85987379343251,40.45906000816324],[-79.86086571316925,40.45902605387579],[-79.86090097653572,40.45860805186302],[-79.86734153959338,40.45840942416068],[-79.86863197219397,40.45611773236994],[-79.86763146276648,40.455835490237],[-79.86523650121842,40.455188865518544],[-79.86739760165361,40.44942496279247],[-79.87118006056535,40.449383278279065],[-79.87477439878187,40.44949359199648],[-79.87833312508555,40.44987611338276],[-79.87854443489151,40.44987627676184],[-79.87923730906341,40.44973439453944],[-79.88046633013623,40.4495099641741],[-79.88071234904815,40.44943681708186],[-79.88100599663642,40.449370894874185],[-79.88116764667518,40.44930335315285],[-79.88142552784043,40.44927725944272],[-79.88289522734078,40.44913210833823],[-79.88405700053144,40.44895939744089],[-79.88417843748648,40.44914147778645],[-79.88463083714839,40.4493115953205],[-79.88484770123777,40.448906171348526],[-79.88530359175289,40.448125168052776],[-79.88551117265212,40.44771730188211],[-79.88571774115002,40.44732215131135],[-79.88593494300594,40.44691662920133],[-79.88643690182376,40.44707330823987],[-79.88806807349644,40.447582435856425],[-79.88837210021953,40.44774015585746],[-79.88917711378329,40.44869630997335],[-79.89019364286722,40.449543100218854],[-79.89096267980216,40.44978423002659],[-79.89236332311171,40.45022327933103],[-79.89316818935175,40.446426478200785],[-79.89421144241707,40.44150427967427],[-79.89482173626155,40.43862412821763],[-79.89559499348171,40.43497532113947],[-79.89554687432518,40.43490085022229],[-79.89550184357664,40.43483671816752],[-79.89542301191887,40.43472942649451],[-79.89529622190302,40.43456070519429],[-79.89502309632744,40.434186502035516],[-79.89446336146378,40.43341892910016]]]},"properties":{"name":"Wilkinsburg","source":"Pennsylvania DEP municipal_boundary FeatureServer / PennDOT Bureau of Municipal Services","MCDNAME":"WILKINSBURG","MCDTYPE":"BORO","MCDCOUNTY":"Allegheny","FIPSCODE":"85188","MCDCODE":"02116"}}]}
