{"type":"FeatureCollection","properties":{"generated_from":"assets/wilkinsburg_blocks_clipped.geojson","generated_at":"2026-06-28T20:49:31.291Z","note":"Visible boundary generated from the exact selectable block polygons, including interior unpaintable gaps when any remain."},"features":[{"type":"Feature","properties":{"kind":"selectable_boundary","part":1,"source":"assets/wilkinsburg_blocks_clipped.geojson"},"geometry":{"type":"Polygon","coordinates":[[[-79.8954447,40.4347457],[-79.89510561280592,40.43428769929997],[-79.8950663,40.4342346],[-79.8950283,40.4341832],[-79.8949966,40.4341395],[-79.894304,40.4331855],[-79.89395290222726,40.43333884089472],[-79.893806,40.433403],[-79.893762,40.433515],[-79.89368413652946,40.43371649401918],[-79.893631,40.433854],[-79.89360051082085,40.43393412272659],[-79.893588,40.433967],[-79.89358101156395,40.43396926292215],[-79.893483,40.434001],[-79.89331959749286,40.43405546750238],[-79.893171,40.434105],[-79.893068,40.434141],[-79.892969,40.43418],[-79.892673,40.434298],[-79.89257812499999,40.43433672448979],[-79.89257658504818,40.434337353041556],[-79.892575,40.434338],[-79.892474,40.434372],[-79.89217,40.434476],[-79.89207,40.434511],[-79.89197,40.43455],[-79.891671,40.434669],[-79.89157351577697,40.434709372253984],[-79.891572,40.43471],[-79.891474,40.434749],[-79.891181,40.434867],[-79.891084,40.434907],[-79.89108053186742,40.4349081900455],[-79.890982,40.434942],[-79.890676,40.435046],[-79.89058511401969,40.43507839500288],[-79.890575,40.435082],[-79.890317,40.435174],[-79.889546,40.435453],[-79.889289,40.435547],[-79.889147,40.435597],[-79.888951,40.435667],[-79.888724,40.435746],[-79.888583,40.435796],[-79.888381,40.435846],[-79.887774,40.435999],[-79.88757434001333,40.43604965999662],[-79.887573,40.43605],[-79.887231,40.436127],[-79.88645079512821,40.436302489119164],[-79.886204,40.436358],[-79.885863,40.436436],[-79.885832,40.43644],[-79.885739,40.436454],[-79.885709,40.43646],[-79.885546,40.436444],[-79.885381,40.436428],[-79.88451764126047,40.436343512294606],[-79.8844,40.436332],[-79.884073,40.436301],[-79.883804,40.436232],[-79.882997,40.436026],[-79.88298520110624,40.436023017380016],[-79.882728,40.435958],[-79.882669,40.435957],[-79.882494,40.435954],[-79.882436,40.435954],[-79.882325,40.435887],[-79.881994,40.435687],[-79.881977,40.435677],[-79.881887,40.435617],[-79.881762,40.435535],[-79.881719,40.435509],[-79.881209,40.435202],[-79.881039,40.4351],[-79.88102226274121,40.43508981816757],[-79.880919,40.435027],[-79.880559,40.434811],[-79.88044,40.434739],[-79.880369,40.434696],[-79.880272,40.434637],[-79.87977,40.434334],[-79.879603,40.434234],[-79.879514,40.43418],[-79.87948381201721,40.43416185421799],[-79.879331,40.43407],[-79.879244,40.434023],[-79.879153,40.433975],[-79.87915004207011,40.43397747202765],[-79.87914638767623,40.43398052611042],[-79.87914210044008,40.43398410907779],[-79.87914210043996,40.4339841090779],[-79.8788190552652,40.434254087283506],[-79.878666,40.434382],[-79.87753916694543,40.43532462436782],[-79.87741580645245,40.43542781854218],[-79.877204,40.435605],[-79.876982,40.435792],[-79.876725,40.435563],[-79.87666229098272,40.43554367498744],[-79.875758,40.435265],[-79.875739,40.435261],[-79.87503273450908,40.43511415271971],[-79.874931,40.435093],[-79.874398,40.43454],[-79.874097,40.4341294],[-79.87404291581666,40.434060084102406],[-79.8739571,40.4339501],[-79.8734185,40.4339461],[-79.87272519655345,40.4338786751405],[-79.872709,40.4338771],[-79.8722429,40.4338193],[-79.87226927817179,40.43376972572989],[-79.87246517252841,40.43340156830688],[-79.872698,40.432964],[-79.872595,40.432945],[-79.872541,40.432896],[-79.872388,40.432754],[-79.872391,40.432748],[-79.87243,40.432687],[-79.872409,40.432678],[-79.872346,40.432653],[-79.872325,40.432645],[-79.872134,40.432567],[-79.871564,40.432335],[-79.871374,40.432258],[-79.871258,40.432219],[-79.870912,40.432102],[-79.870797,40.432063],[-79.8701698179913,40.4319881800486],[-79.869548,40.431914],[-79.86777010240891,40.43170251915446],[-79.86760640375321,40.431683047206086],[-79.86656041494423,40.43155862688016],[-79.8661893501137,40.43151448873379],[-79.865891,40.431479],[-79.865833,40.431546],[-79.865253,40.432232],[-79.865132,40.432375],[-79.865028,40.432512],[-79.864857,40.432804],[-79.8647712881716,40.43295105460756],[-79.864347,40.433679],[-79.864178,40.433972],[-79.864114,40.434192],[-79.8640591,40.4343811],[-79.863922,40.434853],[-79.86386162495542,40.43506479182305],[-79.863859,40.435074],[-79.863675,40.435272],[-79.86316301802725,40.435827733159506],[-79.863125,40.435869],[-79.862942,40.436068],[-79.8626734,40.4363978],[-79.862587,40.436504],[-79.862034,40.437187],[-79.861405,40.437692],[-79.860967,40.438045],[-79.860552,40.438413],[-79.8608982,40.4383435],[-79.86147986382119,40.43822662901412],[-79.861487010508,40.43822519306383],[-79.861806,40.4381611],[-79.861946,40.438133],[-79.86194979762284,40.43813243207755],[-79.86320081552827,40.43794534631828],[-79.86327,40.437935],[-79.86292662959718,40.43816686351943],[-79.862882,40.438197],[-79.8629582018046,40.43816803920634],[-79.86420502841393,40.43769417788042],[-79.86451999539865,40.43757447344687],[-79.86451999539872,40.43757447344686],[-79.86468293528804,40.43751254750509],[-79.864737,40.437492],[-79.86462323278474,40.43755204603198],[-79.86448806848263,40.43762338538918],[-79.86374328824338,40.43801647840778],[-79.863316,40.438242],[-79.862202,40.43887],[-79.861993,40.438958],[-79.861574,40.439072],[-79.861323,40.439236],[-79.86152674636773,40.44074109413579],[-79.86165549950883,40.44169220604903],[-79.861664,40.441755],[-79.861507,40.441786],[-79.861455,40.441801],[-79.861226,40.44187],[-79.860841,40.441985],[-79.860792,40.442],[-79.86064,40.442055],[-79.86062853720374,40.44205712746776],[-79.8602572782938,40.442126032239464],[-79.85942272548422,40.44228092325831],[-79.859293,40.442305],[-79.85923714131704,40.442329856375494],[-79.85845678821252,40.44267710319118],[-79.85831597064605,40.44273976514673],[-79.8583096,40.4427426],[-79.85844697145376,40.442877942552606],[-79.85856020644007,40.44298950512018],[-79.8585872,40.4430161],[-79.8591368,40.4435579],[-79.8593053,40.443724],[-79.8595174,40.4439006],[-79.8599236,40.4442387],[-79.8600677,40.4443431],[-79.8602287,40.4444489],[-79.8604104,40.4445399],[-79.860681,40.4446552],[-79.86093257785963,40.444762394852965],[-79.86095074907838,40.44477013743066],[-79.8609516,40.4447705],[-79.8609508006496,40.44477060839799],[-79.86078406885922,40.444793218496514],[-79.8603624,40.4448504],[-79.85860203868717,40.44515031708823],[-79.8585904,40.4451523],[-79.8584914,40.445171],[-79.8583862,40.4451908],[-79.8583663,40.4451937],[-79.85767633408378,40.44529447941583],[-79.8576358,40.4453004],[-79.8571329,40.4453739],[-79.8564316,40.4454763],[-79.85633392208659,40.44549055870324],[-79.8560103,40.4455378],[-79.8553108,40.44564],[-79.85440968779447,40.44577158545306],[-79.8539672,40.4458362],[-79.854084,40.446594],[-79.854115,40.446786],[-79.854126,40.446852],[-79.854162,40.44705],[-79.854175,40.447117],[-79.85419266211149,40.44734072007889],[-79.854214,40.447611],[-79.854331,40.449093],[-79.854371,40.449587],[-79.8543717667274,40.44959507619524],[-79.854386,40.449745],[-79.854434,40.450219],[-79.85444883757819,40.450365521084585],[-79.85445,40.450377],[-79.854434,40.450555],[-79.854387,40.451091],[-79.85437201153762,40.45126986231776],[-79.854372,40.45127],[-79.854411,40.451569],[-79.854531,40.452468],[-79.854571,40.452768],[-79.854569,40.452859],[-79.854563,40.453132],[-79.85456107161218,40.453219741645896],[-79.854561,40.453223],[-79.85456815161449,40.45358318131115],[-79.85456874247257,40.45361293907251],[-79.854572,40.453777],[-79.854777,40.453779],[-79.855273,40.453787],[-79.855345,40.45557],[-79.85535427590277,40.45579030269076],[-79.855377,40.45633],[-79.855466,40.456593],[-79.855487,40.456826],[-79.85554230539486,40.45744238754604],[-79.8555425753696,40.45744539645805],[-79.855549,40.457517],[-79.856392,40.457492],[-79.856905,40.457477],[-79.85691514030279,40.457506477624385],[-79.856948,40.457602],[-79.857078,40.457979],[-79.857122,40.458105],[-79.857182,40.458278],[-79.857268,40.458526],[-79.8572964,40.4586488],[-79.857305,40.458686],[-79.857306,40.458713],[-79.8573013,40.4587583],[-79.857296,40.458809],[-79.857289,40.458884],[-79.857313,40.458924],[-79.857336,40.458944],[-79.857363,40.45896],[-79.85743298793325,40.45906742828658],[-79.857692,40.459465],[-79.857717,40.459463],[-79.859602,40.459384],[-79.859671,40.459382],[-79.85961914062499,40.45928876752065],[-79.859399,40.458893],[-79.859541,40.458888],[-79.85961914062499,40.45888563210227],[-79.85997,40.458875],[-79.8601128063841,40.458872004061874],[-79.860113,40.458872],[-79.86037,40.458857],[-79.8607,40.458839],[-79.86089538542322,40.458674327335615],[-79.86097679619346,40.45860571357609],[-79.86099669718116,40.45858894083728],[-79.860999,40.458587],[-79.861048,40.45857],[-79.8612928390503,40.458491372825314],[-79.861294,40.458491],[-79.861529,40.458489],[-79.862236,40.458485],[-79.86246536207737,40.45848402812679],[-79.862472,40.458484],[-79.862765,40.458492],[-79.863646,40.458517],[-79.86375006475926,40.45852018565589],[-79.86394,40.458526],[-79.86422,40.458523],[-79.86506,40.458514],[-79.86534,40.458511],[-79.866104,40.458527],[-79.86636828701648,40.45853272049819],[-79.867028,40.458547],[-79.86710443747926,40.458416736417036],[-79.86753981616938,40.45767477071279],[-79.867721,40.457366],[-79.86810825574383,40.45670826408458],[-79.868109,40.456707],[-79.86809923884559,40.456704833621345],[-79.867717,40.45662],[-79.866541,40.456359],[-79.866149,40.456272],[-79.865728,40.4561],[-79.86572977919148,40.456090923107865],[-79.865787,40.455799],[-79.86587379292304,40.45536093031408],[-79.866231,40.453558],[-79.86638,40.452812],[-79.86640738051241,40.45268648034757],[-79.866469,40.452404],[-79.86673548117706,40.451190914044716],[-79.866737,40.451184],[-79.866827,40.450777],[-79.866852,40.450656],[-79.866871,40.450568],[-79.867271,40.450568],[-79.867442,40.450544],[-79.867958,40.450476],[-79.86813,40.450454],[-79.868238,40.450448],[-79.868565,40.450431],[-79.868674,40.450426],[-79.868779,40.450409],[-79.869095,40.450359],[-79.869201,40.450343],[-79.869392,40.450283],[-79.869704,40.450187],[-79.86987452662311,40.45013427993713],[-79.869966,40.450106],[-79.870158,40.450047],[-79.870347,40.450064],[-79.870917,40.450117],[-79.871107,40.450135],[-79.871197,40.450141],[-79.87147,40.450162],[-79.871561,40.450169],[-79.871775,40.450018],[-79.87185454917528,40.44996232794887],[-79.872418,40.449568],[-79.8726194485652,40.449427454489395],[-79.872633,40.449418],[-79.87268106045022,40.449429345417755],[-79.872938,40.44949],[-79.873855,40.449708],[-79.874161,40.449781],[-79.87451,40.449882],[-79.87461933562402,40.44987675189005],[-79.874635,40.449876],[-79.875714,40.449829],[-79.876095,40.44989],[-79.876578,40.449969],[-79.876688,40.449968],[-79.87713,40.449968],[-79.87715308275578,40.44996758780793],[-79.877242,40.449966],[-79.87758,40.449964],[-79.877693,40.449964],[-79.877812,40.449927],[-79.878169,40.449818],[-79.87828731536865,40.4497825053894],[-79.878289,40.449782],[-79.878437,40.449785],[-79.878881,40.449794],[-79.87889297127629,40.449804905770016],[-79.879072,40.449968],[-79.879029,40.449797],[-79.879255,40.449756],[-79.8793,40.449747],[-79.879435,40.449721],[-79.879481,40.449713],[-79.879562,40.449697],[-79.879805,40.449653],[-79.87981970094148,40.449650310803385],[-79.879887,40.449638],[-79.8799629909987,40.449623662075716],[-79.879993,40.449618],[-79.880132,40.449592],[-79.88027699436657,40.44955595620266],[-79.880309,40.449548],[-79.880414,40.449523],[-79.880477,40.449508],[-79.880372,40.449768],[-79.880589,40.44948],[-79.880681,40.449458],[-79.880927,40.449407],[-79.881041,40.449385],[-79.881075,40.449378],[-79.881181,40.449358],[-79.881216,40.449352],[-79.881299,40.449338],[-79.881472,40.44931],[-79.881534,40.449319],[-79.881548,40.449327],[-79.881592,40.449352],[-79.881614,40.449379],[-79.881728,40.44934],[-79.88207,40.449226],[-79.88212556723546,40.449208121845984],[-79.882185,40.449189],[-79.88226816471204,40.449184155453665],[-79.882288,40.449183],[-79.88248057009649,40.44917306089825],[-79.882598,40.449167],[-79.8826791,40.4491548],[-79.8827371,40.4491505],[-79.8828176502779,40.44913977003803],[-79.8828437,40.4491363],[-79.8829401,40.4491133],[-79.88295884193474,40.449109691927],[-79.8831084,40.4490809],[-79.88314796742355,40.44907331624382],[-79.8831564,40.4490717],[-79.88317599192904,40.4490679196518],[-79.8832813,40.4490476],[-79.8834049,40.4490238],[-79.88349196222246,40.44901240724233],[-79.883518,40.449009],[-79.88354031315922,40.449004537368154],[-79.883568,40.448999],[-79.883901,40.44894],[-79.88401616087421,40.44892020672474],[-79.884029,40.448918],[-79.88403924528222,40.44895991251822],[-79.88403974638108,40.448961962468054],[-79.88404,40.448963],[-79.884075,40.449098],[-79.884087,40.449144],[-79.8841748,40.4491692],[-79.8841966,40.4491755],[-79.88450159840811,40.44926299719444],[-79.8845159,40.4492671],[-79.88458105706354,40.44928581817147],[-79.884589,40.4492881],[-79.884666,40.44914],[-79.88483317434304,40.44884178056753],[-79.884939,40.448653],[-79.88503,40.448491],[-79.88503333097135,40.44848501939233],[-79.885074,40.448412],[-79.885207,40.448178],[-79.885252,40.4481],[-79.88527022743257,40.44806759567541],[-79.885297,40.44802],[-79.885322,40.447977],[-79.88534379355929,40.44793388665447],[-79.885368,40.447886],[-79.885422,40.447776],[-79.88546115574049,40.44770048535764],[-79.885464,40.447695],[-79.885513,40.447619],[-79.88554234186773,40.44757520616758],[-79.88558,40.447519],[-79.88560049878924,40.44748292213093],[-79.885655,40.447387],[-79.8857,40.447309],[-79.885745,40.447228],[-79.885884,40.446987],[-79.885901,40.446958],[-79.8859239,40.4469166],[-79.88593345446913,40.44691940834237],[-79.88611162919933,40.44697177918958],[-79.886143,40.446981],[-79.88617663760657,40.44699207060469],[-79.88638,40.447059],[-79.88646075255356,40.44708585783378],[-79.887733,40.447509],[-79.888184,40.447659],[-79.88820513271182,40.44765916131841],[-79.88820908324955,40.447655587512905],[-79.88821613412846,40.447659245298695],[-79.888315,40.44766],[-79.888329,40.447661],[-79.88837873088616,40.44769807211513],[-79.888384,40.447702],[-79.888641,40.447882],[-79.888749,40.447958],[-79.889069,40.448337],[-79.88928072111268,40.448587078575315],[-79.88977,40.449165],[-79.890102,40.449397],[-79.89040359144875,40.44960892912615],[-79.890509,40.449683],[-79.890645,40.449767],[-79.890972,40.449968],[-79.89102,40.449989],[-79.891061,40.450006],[-79.891209,40.450069],[-79.891451,40.450146],[-79.89164673738959,40.45020802378188],[-79.89218,40.450377],[-79.892423,40.450455],[-79.892423,40.450103],[-79.892424,40.45007],[-79.892429,40.449972],[-79.892431,40.44994],[-79.892436,40.449919],[-79.892452,40.449857],[-79.892458,40.449837],[-79.8924622,40.4498211],[-79.892529,40.449568],[-79.892742,40.448764],[-79.892759,40.448701],[-79.89272628551628,40.448511074247286],[-79.89272383959059,40.44849687428982],[-79.892723,40.448492],[-79.892712,40.448427],[-79.892682,40.448232],[-79.892672,40.448168],[-79.892699,40.448099],[-79.89278,40.447895],[-79.892808,40.447827],[-79.892846,40.447761],[-79.892963,40.447565],[-79.8929969,40.4475068],[-79.89302,40.44729],[-79.89304153942057,40.44702392480492],[-79.893071,40.44666],[-79.8930909,40.4464608],[-79.8930944432636,40.44644160656696],[-79.89313,40.446249],[-79.893258,40.445648],[-79.893301,40.445448],[-79.8933017787121,40.44544248671828],[-79.893326,40.445271],[-79.893402,40.444741],[-79.893428,40.444565],[-79.89342842141087,40.44456291928382],[-79.89346,40.444407],[-79.893556,40.443936],[-79.893589,40.44378],[-79.89358906803666,40.44377976805687],[-79.893611,40.443705],[-79.893678,40.443481],[-79.893701,40.443407],[-79.893724,40.443333],[-79.893795,40.443111],[-79.893819,40.443038],[-79.893839,40.442963],[-79.893902,40.442738],[-79.893923,40.442664],[-79.893944,40.442591],[-79.894009,40.442374],[-79.894032,40.442302],[-79.89403460280796,40.44229300848158],[-79.894054,40.442226],[-79.89406854585326,40.442178483546016],[-79.894114,40.44203],[-79.894119,40.441997],[-79.894134,40.441919],[-79.894158,40.441847],[-79.894233,40.441633],[-79.894242,40.44161],[-79.894257,40.441562],[-79.894279,40.441484],[-79.894336,40.44129],[-79.894344,40.441253],[-79.894363,40.441175],[-79.894394,40.441041],[-79.8944145650319,40.44095466970986],[-79.89449,40.440638],[-79.894522,40.440505],[-79.894554,40.44037],[-79.894649,40.439965],[-79.8946765,40.4398531],[-79.894682,40.439831],[-79.894706,40.439726],[-79.89478,40.439413],[-79.894806,40.439309],[-79.894827,40.439215],[-79.89485069974735,40.43911290878068],[-79.894892,40.438935],[-79.894915,40.438842],[-79.894907,40.438817],[-79.894886,40.438743],[-79.894879,40.438719],[-79.89488506068076,40.438683014708005],[-79.894911,40.438529],[-79.895011,40.43796],[-79.895044,40.437771],[-79.895042,40.43775],[-79.8950413883589,40.4377373594172],[-79.895039,40.437688],[-79.895038,40.437668],[-79.89503561330505,40.437614896037395],[-79.895034,40.437579],[-79.895025,40.437312],[-79.895022,40.437223],[-79.89502086703898,40.43721488044607],[-79.89501,40.437137],[-79.894977,40.436879],[-79.894966,40.436793],[-79.89496854291657,40.43678226324114],[-79.894984,40.436717],[-79.895039,40.436493],[-79.89505455429908,40.436431601451005],[-79.895058,40.436418],[-79.895107,40.436334],[-79.895258,40.436082],[-79.89530437546004,40.43600501673633],[-79.895308,40.435999],[-79.895322,40.43597],[-79.895367,40.435884],[-79.89537773025349,40.435863970193495],[-79.895382,40.435856],[-79.895393,40.435634],[-79.895427,40.434969],[-79.89544375239934,40.43475765475855],[-79.8954447,40.4347457]]]}}]}