{"type":"FeatureCollection","properties":{"source":"U.S. Census Bureau TIGERweb Tracts_Blocks MapServer layer 7","source_url":"https://tigerweb.geo.census.gov/arcgis/rest/services/TIGERweb/Tracts_Blocks/MapServer/7/query","source_where":"STATE='42' AND COUNTY='003'","clipped_to":"assets/wilkinsburg_survey_boundary.geojson","sliver_tract_area_sq_m":1000,"feature_count":14},"features":[{"type":"Feature","properties":{"GEOID":"42003130600","STATE":"42","COUNTY":"003","TRACT":"130600","NAME":"Census Tract 1306","BASENAME":"1306","area_sq_m":52962},"geometry":{"type":"MultiPolygon","coordinates":[[[[-79.88407732592518,40.449106916046524],[-79.88407500007477,40.4490980000083],[-79.88405972058942,40.44903906513065],[-79.884075,40.449098],[-79.88407732592518,40.449106916046524]]],[[[-79.88403481352748,40.44894178261244],[-79.88402900004402,40.44891799975248],[-79.88395610218673,40.44893052931165],[-79.884029,40.448918],[-79.88403481352748,40.44894178261244]]],[[[-79.8836446258067,40.44898542365587],[-79.88356799991158,40.44899899996146],[-79.88351799968285,40.449008999710394],[-79.88351799634867,40.4490090004778],[-79.883518,40.449009],[-79.883568,40.448999],[-79.8836446258067,40.44898542365587]]],[[[-79.88253668972798,40.44917016440114],[-79.8822880003447,40.44918299975268],[-79.88218500041255,40.44918899972254],[-79.88214633782393,40.44920143913491],[-79.882185,40.449189],[-79.882288,40.449183],[-79.88253668972798,40.44917016440114]]],[[[-79.88153655850103,40.449320462000586],[-79.88153400030929,40.44931900007707],[-79.88153400007546,40.449319000043126],[-79.88153655850103,40.449320462000586]]],[[[-79.8815271300394,40.44931800274765],[-79.88147200038502,40.44930999979774],[-79.88136025362724,40.44932808611813],[-79.881472,40.44931],[-79.8815271300394,40.44931800274765]]],[[[-79.88068106946018,40.449457985599715],[-79.88068099964137,40.44945799975729],[-79.88068094462739,40.449458013241276],[-79.880681,40.449458],[-79.88068106946018,40.449457985599715]]],[[[-79.880588492682,40.44948067330684],[-79.88047700032519,40.44950800019655],[-79.88047699987759,40.44950800030312],[-79.880372,40.449768],[-79.880588492682,40.44948067330684]]],[[[-79.88045023459216,40.44951437271615],[-79.88041399967767,40.44952299970584],[-79.88035328523505,40.44953745589642],[-79.880414,40.449523],[-79.88045023459216,40.44951437271615]]],[[[-79.88017422324691,40.44958150382563],[-79.88013199964536,40.44959200000309],[-79.8799929997282,40.449617999938226],[-79.8798870003213,40.44963799993407],[-79.87988335479899,40.449638666805065],[-79.879887,40.449638],[-79.879993,40.449618],[-79.880132,40.449592],[-79.88017422324691,40.44958150382563]]],[[[-79.87971571385302,40.44966916703896],[-79.87956199973297,40.44969699978456],[-79.87950651374247,40.4497079602484],[-79.879562,40.449697],[-79.87971571385302,40.44966916703896]]],[[[-79.879072,40.449968],[-79.87902924014365,40.44979795498988],[-79.8790289996305,40.44979799968641],[-79.87890996283265,40.449820384988904],[-79.879072,40.449968]]],[[[-79.87795262024159,40.44988406552848],[-79.8779519995549,40.449884000011146],[-79.87769200016221,40.44985800017893],[-79.8771280000976,40.44980300018523],[-79.87657400007873,40.44974800014651],[-79.87648299984214,40.44974000002528],[-79.87449899957025,40.4495379998954],[-79.8742269995837,40.44951099982523],[-79.8741429999181,40.44950200025522],[-79.87394799992444,40.44948499984876],[-79.87315200005624,40.44941299980872],[-79.872685000076,40.44936699972374],[-79.87261300010597,40.44937499988938],[-79.87168099979532,40.44938699979428],[-79.87123700027963,40.44938799990021],[-79.87008800023402,40.44938799990021],[-79.86983299996588,40.44938900000607],[-79.86903999957242,40.44938900000607],[-79.86828100041245,40.44939800027488],[-79.86756099981392,40.44938900000607],[-79.86713999986443,40.449392000323684],[-79.86695099971855,40.45029799987529],[-79.86689499964204,40.45056799966095],[-79.86689499957032,40.450568],[-79.867271,40.450568],[-79.867442,40.450544],[-79.867958,40.450476],[-79.86813,40.450454],[-79.868238,40.450448],[-79.868565,40.450431],[-79.868674,40.450426],[-79.868779,40.450409],[-79.869095,40.450359],[-79.869201,40.450343],[-79.869392,40.450283],[-79.869704,40.450187],[-79.869966,40.450106],[-79.870158,40.450047],[-79.870347,40.450064],[-79.870917,40.450117],[-79.871107,40.450135],[-79.871197,40.450141],[-79.87147,40.450162],[-79.871561,40.450169],[-79.871775,40.450018],[-79.872418,40.449568],[-79.872633,40.449418],[-79.872938,40.44949],[-79.873855,40.449708],[-79.874161,40.449781],[-79.87451,40.449882],[-79.874635,40.449876],[-79.875714,40.449829],[-79.876095,40.44989],[-79.876578,40.449969],[-79.876688,40.449968],[-79.87713,40.449968],[-79.877242,40.449966],[-79.87758,40.449964],[-79.877693,40.449964],[-79.877812,40.449927],[-79.87795262024159,40.44988406552848]]]]}},{"type":"Feature","properties":{"GEOID":"42003130800","STATE":"42","COUNTY":"003","TRACT":"130800","NAME":"Census Tract 1308","BASENAME":"1308","area_sq_m":4983},"geometry":{"type":"MultiPolygon","coordinates":[[[[-79.892423,40.45045499984142],[-79.89242299999265,40.45045499983707],[-79.89242299999265,40.45026600033012],[-79.89237199993903,40.45025199971252],[-79.8920380000282,40.4501770002118],[-79.89176799969144,40.45009800024618],[-79.89115400029644,40.449820999927134],[-79.89107300010559,40.449778999838294],[-79.89044399974364,40.449458999862166],[-79.88981600010493,40.44905100028045],[-79.88924199999457,40.4485409998836],[-79.88924082258256,40.44853995163818],[-79.88977,40.449165],[-79.890102,40.449397],[-79.890509,40.449683],[-79.890645,40.449767],[-79.890972,40.449968],[-79.89102,40.449989],[-79.891061,40.450006],[-79.891209,40.450069],[-79.891451,40.450146],[-79.89218,40.450377],[-79.892423,40.450455],[-79.892423,40.45045499984142]]],[[[-79.8862626028646,40.4470203629681],[-79.88614300001224,40.44698099993936],[-79.88592999957693,40.44690699966562],[-79.88592444896925,40.44691676135837],[-79.886143,40.446981],[-79.8862626028646,40.4470203629681]]],[[[-79.88578333540278,40.447161533582246],[-79.885744999629,40.44722800030947],[-79.88572372072967,40.447266302686586],[-79.885745,40.447228],[-79.88578333540278,40.447161533582246]]],[[[-79.88560502840012,40.44747495001579],[-79.88557999977256,40.4475190002008],[-79.88551299982541,40.44761899982558],[-79.88549485997686,40.447647135546106],[-79.885513,40.447619],[-79.88558,40.447519],[-79.88560502840012,40.44747495001579]]],[[[-79.88544325304478,40.44773501198507],[-79.88542199958881,40.44777599989338],[-79.88536800006045,40.447885999735426],[-79.8853220000297,40.4479769997235],[-79.88529699991534,40.44801999969754],[-79.8852519997095,40.44810000018016],[-79.88524113916108,40.44811882545411],[-79.885252,40.4481],[-79.885297,40.44802],[-79.885322,40.447977],[-79.885368,40.447886],[-79.885422,40.447776],[-79.88544325304478,40.44773501198507]]],[[[-79.88502874107705,40.44849324115953],[-79.88493899971503,40.44865300007454],[-79.88482800028528,40.44884900013041],[-79.88466599990358,40.449139999839126],[-79.88458488060967,40.44928691659101],[-79.884589,40.4492881],[-79.884666,40.44914],[-79.884939,40.448653],[-79.88502874107705,40.44849324115953]]]]}},{"type":"Feature","properties":{"GEOID":"42003516100","STATE":"42","COUNTY":"003","TRACT":"516100","NAME":"Census Tract 5161","BASENAME":"5161","area_sq_m":15161},"geometry":{"type":"MultiPolygon","coordinates":[[[[-79.89455617523208,40.43353285081058],[-79.894304,40.4331855],[-79.893806,40.433403],[-79.893762,40.433515],[-79.893631,40.433854],[-79.89360021052268,40.43393491188225],[-79.89364800020626,40.43391499987169],[-79.8940530002622,40.43374400029589],[-79.89410400031583,40.43372500001232],[-79.89448400025744,40.43356300029116],[-79.89455617523208,40.43353285081058]]],[[[-79.89325727329039,40.43407624223654],[-79.893171,40.434105],[-79.893068,40.434141],[-79.892969,40.43418],[-79.892673,40.434298],[-79.892575,40.434338],[-79.892474,40.434372],[-79.89217,40.434476],[-79.89207,40.434511],[-79.89197,40.43455],[-79.891671,40.434669],[-79.891572,40.43471],[-79.891474,40.434749],[-79.891181,40.434867],[-79.891084,40.434907],[-79.890982,40.434942],[-79.890676,40.435046],[-79.890575,40.435082],[-79.890317,40.435174],[-79.889546,40.435453],[-79.889289,40.435547],[-79.889147,40.435597],[-79.888951,40.435667],[-79.888724,40.435746],[-79.888583,40.435796],[-79.888381,40.435846],[-79.887774,40.435999],[-79.887573,40.43605],[-79.887231,40.436127],[-79.886204,40.436358],[-79.885863,40.436436],[-79.885832,40.43644],[-79.885739,40.436454],[-79.885709,40.43646],[-79.88570899957617,40.436459999958394],[-79.88570899964398,40.436460000317126],[-79.88576499972046,40.43675199994249],[-79.88578200033722,40.43684299996226],[-79.8858989996148,40.436872000235695],[-79.88594800001857,40.43685899985532],[-79.88596599956195,40.436855000053335],[-79.88603800043026,40.436830999868995],[-79.88718300027794,40.436425000124714],[-79.88765500028104,40.436256000013735],[-79.88773999977154,40.4362270001583],[-79.88860699978484,40.43591999981373],[-79.88868499960266,40.43589299974309],[-79.88877900021231,40.435865000038234],[-79.88921799970512,40.43570800018298],[-79.88940699985102,40.435642999865564],[-79.88954400011836,40.43559699992905],[-79.88957900027847,40.43561300011861],[-79.88975199963251,40.435543999829385],[-79.88996599989275,40.43546000024388],[-79.89055500007171,40.435212000073776],[-79.89064299993525,40.435176000281885],[-79.89072199957799,40.43514600032656],[-79.89109800021996,40.43498599988318],[-79.8911309998319,40.434972999821845],[-79.89116000014421,40.434961999715405],[-79.89153699971276,40.434804000163766],[-79.89161500042889,40.43476899979306],[-79.8916949998965,40.43473499972805],[-79.89207499983812,40.43458199990668],[-79.89210999999821,40.43456600015554],[-79.89259100022215,40.43436099992992],[-79.8926730002379,40.43432099972962],[-79.89305200035459,40.434163000039234],[-79.89307999994368,40.434157000095624],[-79.89325727329039,40.43407624223654]]]]}},{"type":"Feature","properties":{"GEOID":"42003516200","STATE":"42","COUNTY":"003","TRACT":"516200","NAME":"Census Tract 5162","BASENAME":"5162","area_sq_m":13597},"geometry":{"type":"MultiPolygon","coordinates":[[[[-79.88578200033722,40.43684299996226],[-79.88576499972046,40.43675199994249],[-79.88570899964398,40.436460000317126],[-79.88570899957617,40.436459999958394],[-79.885546,40.436444],[-79.885381,40.436428],[-79.8844,40.436332],[-79.884073,40.436301],[-79.883804,40.436232],[-79.882997,40.436026],[-79.882728,40.435958],[-79.882669,40.435957],[-79.882494,40.435954],[-79.882436,40.435954],[-79.88236878752298,40.43591343030667],[-79.8824359995844,40.43595399996324],[-79.88247999996533,40.435979999703996],[-79.8826120002098,40.436060000158086],[-79.88265599969242,40.43608700016167],[-79.88343700039033,40.436286999774616],[-79.88361700031538,40.436329000089486],[-79.88408799959527,40.43643799990525],[-79.88492600019457,40.43663400002642],[-79.88560900008488,40.43680099996841],[-79.88578200033722,40.43684299996226]]],[[[-79.88232496719323,40.43588698017718],[-79.88211928045749,40.435762698161625],[-79.88221499965145,40.435821000185456],[-79.88232496719323,40.43588698017718]]],[[[-79.8819940075647,40.435687004570816],[-79.881994,40.435687],[-79.881977,40.435677],[-79.881887,40.435617],[-79.88181384433739,40.43556900988532],[-79.88188699958839,40.43561699999448],[-79.88197700000009,40.43567700015514],[-79.88199399971852,40.43568699983483],[-79.8819940075647,40.435687004570816]]],[[[-79.88152137487783,40.43539003742646],[-79.881209,40.435202],[-79.881039,40.4351],[-79.88097015111704,40.43505811692953],[-79.88103899984165,40.43510000005008],[-79.88120899972097,40.43520200032345],[-79.88152137487783,40.43539003742646]]],[[[-79.8805024551214,40.434776787972616],[-79.88044,40.434739],[-79.88038370145257,40.43470490369663],[-79.88043999961694,40.43473900033991],[-79.8805024551214,40.434776787972616]]],[[[-79.87956066940777,40.434208316269874],[-79.879514,40.43418],[-79.87935264390107,40.43408300999518],[-79.8795140000524,40.43418000021849],[-79.87956066940777,40.434208316269874]]],[[[-79.8792464578583,40.43402432780851],[-79.879244,40.434023],[-79.87924399990875,40.43402299995187],[-79.8792464578583,40.43402432780851]]],[[[-79.87924399904291,40.43402299949516],[-79.879153,40.433975],[-79.878666,40.434382],[-79.87741116526024,40.43543170101692],[-79.87753300015356,40.43550499996165],[-79.87913499993572,40.434028000152445],[-79.87918099996648,40.43398999974038],[-79.87924399904291,40.43402299949516]]],[[[-79.87495399000942,40.43509778010097],[-79.874931,40.435093],[-79.874398,40.43454],[-79.874097,40.4341294],[-79.8739571,40.4339501],[-79.8734185,40.4339461],[-79.87272281342955,40.43387844337792],[-79.87359899994497,40.43408900001331],[-79.87403099976511,40.43419200010113],[-79.87408199981873,40.43439399985503],[-79.87423699962943,40.435015999909844],[-79.87417999972801,40.435264000119055],[-79.87495300003002,40.43509800009677],[-79.87495399000942,40.43509778010097]]],[[[-79.872698,40.432964],[-79.872595,40.432945],[-79.8725949997095,40.43294499973639],[-79.87259499966433,40.4329449998219],[-79.87246199959492,40.43320100018758],[-79.87232900042385,40.43347199993475],[-79.87219399980631,40.433750000276405],[-79.87226962655474,40.43376907099042],[-79.872698,40.432964]]]]}},{"type":"Feature","properties":{"GEOID":"42003517000","STATE":"42","COUNTY":"003","TRACT":"517000","NAME":"Census Tract 5170","BASENAME":"5170","area_sq_m":26870},"geometry":{"type":"Polygon","coordinates":[[[-79.8725949997095,40.43294499973639],[-79.872541,40.432896],[-79.872388,40.432754],[-79.872391,40.432748],[-79.87243,40.432687],[-79.872409,40.432678],[-79.872346,40.432653],[-79.872325,40.432645],[-79.872134,40.432567],[-79.871564,40.432335],[-79.871374,40.432258],[-79.871258,40.432219],[-79.870912,40.432102],[-79.870797,40.432063],[-79.86975334107085,40.43193849625265],[-79.86956299962915,40.43197399977391],[-79.86942799990993,40.43200599982214],[-79.86893400016552,40.43218000011717],[-79.86884499957874,40.43221099970594],[-79.86911800028854,40.43232600015092],[-79.86979399960784,40.43261199986973],[-79.87040399970319,40.43287000015521],[-79.87053799959749,40.43292599999634],[-79.87077000029939,40.433024999784465],[-79.87131400027252,40.43325400008273],[-79.87160200015262,40.43337599978592],[-79.87195799980476,40.43352599995825],[-79.87199600033792,40.43354300029854],[-79.8719250001928,40.433681000126654],[-79.87202800012497,40.433707000062576],[-79.87219399980631,40.433750000276405],[-79.87232900042385,40.43347199993475],[-79.87246199959492,40.43320100018758],[-79.87259499966433,40.4329449998219],[-79.8725949997095,40.43294499973639]]]}},{"type":"Feature","properties":{"GEOID":"42003518001","STATE":"42","COUNTY":"003","TRACT":"518001","NAME":"Census Tract 5180.01","BASENAME":"5180.01","area_sq_m":31397},"geometry":{"type":"MultiPolygon","coordinates":[[[[-79.86975334107085,40.43193849625265],[-79.869548,40.431914],[-79.86760003939233,40.43168229016562],[-79.8684830000788,40.432056999931724],[-79.86884499957874,40.43221099970594],[-79.86893400016552,40.43218000011717],[-79.86942799990993,40.43200599982214],[-79.86956299962915,40.43197399977391],[-79.86975334107085,40.43193849625265]]],[[[-79.86657383243903,40.43156022289062],[-79.865891,40.431479],[-79.865833,40.431546],[-79.865253,40.432232],[-79.865132,40.432375],[-79.865028,40.432512],[-79.864857,40.432804],[-79.864347,40.433679],[-79.864178,40.433972],[-79.864114,40.434192],[-79.8640591,40.4343811],[-79.863922,40.434853],[-79.863859,40.435074],[-79.863675,40.435272],[-79.863125,40.435869],[-79.862942,40.436068],[-79.8626734,40.4363978],[-79.862587,40.436504],[-79.862034,40.437187],[-79.861405,40.437692],[-79.860967,40.438045],[-79.86093202082711,40.43807601767622],[-79.86105900007567,40.438182999862974],[-79.8611810002744,40.43828599983274],[-79.86118164251796,40.43828654922309],[-79.86149714371712,40.438223157045606],[-79.86149799956848,40.438222000228535],[-79.86306500008885,40.43616600018584],[-79.8631239996401,40.43608700016167],[-79.86382599979696,40.43513999978691],[-79.86385900030723,40.43507399996903],[-79.86459499990099,40.43413500029773],[-79.86533700024083,40.433152999936866],[-79.86540400018798,40.433065999736954],[-79.86547500033308,40.43298100012453],[-79.86555200032599,40.43288800032901],[-79.86563799964138,40.43278599996421],[-79.86576300021318,40.43263800021899],[-79.8658219997644,40.43255999982487],[-79.86657383243903,40.43156022289062]]]]}},{"type":"Feature","properties":{"GEOID":"42003519000","STATE":"42","COUNTY":"003","TRACT":"519000","NAME":"Census Tract 5190","BASENAME":"5190","area_sq_m":17362},"geometry":{"type":"MultiPolygon","coordinates":[[[[-79.86510799991197,40.43745199965922],[-79.86460784336265,40.43756016852781],[-79.863316,40.438242],[-79.862202,40.43887],[-79.861993,40.438958],[-79.861574,40.439072],[-79.861323,40.439236],[-79.86165199955427,40.44166635154602],[-79.86165199955427,40.4416610000436],[-79.86209500014337,40.44152999969483],[-79.86198200016547,40.44102899968007],[-79.86189599995176,40.4406479997404],[-79.86160499969861,40.43939199999165],[-79.86251799974269,40.438849999949426],[-79.86283800030814,40.438659000095456],[-79.86315600032543,40.4384900001302],[-79.86327199977809,40.43842799989078],[-79.86510799991197,40.43745199965922]]],[[[-79.864488298193,40.43758652009377],[-79.86379700038296,40.437738999733796],[-79.86343800035776,40.43781999974044],[-79.86311899961721,40.437886999874785],[-79.86213699997617,40.43810299988378],[-79.86194600018045,40.43813299988714],[-79.86155799984294,40.438209999697726],[-79.86149799956848,40.438222000228535],[-79.86149714371712,40.438223157045606],[-79.861806,40.4381611],[-79.861946,40.438133],[-79.86327,40.437935],[-79.862882,40.438197],[-79.864488298193,40.43758652009377]]],[[[-79.86118164251796,40.43828654922309],[-79.8611810002744,40.43828599983274],[-79.86105900007567,40.438182999862974],[-79.86093202082711,40.43807601767622],[-79.860552,40.438413],[-79.8608982,40.4383435],[-79.86118164251796,40.43828654922309]]],[[[-79.86027456964288,40.44212282300615],[-79.859293,40.442305],[-79.85839478046837,40.44270469581761],[-79.85878199990081,40.442585999729125],[-79.85932800042208,40.442417000064324],[-79.8602740000781,40.44212300000307],[-79.86027456964288,40.44212282300615]]],[[[-79.85405792754138,40.44642484153126],[-79.85404422759846,40.445824951998496],[-79.8539672,40.4458362],[-79.85405792754138,40.44642484153126]]]]}},{"type":"Feature","properties":{"GEOID":"42003523200","STATE":"42","COUNTY":"003","TRACT":"523200","NAME":"Census Tract 5232","BASENAME":"5232","area_sq_m":18591},"geometry":{"type":"MultiPolygon","coordinates":[[[[-79.86099544753368,40.45858999405189],[-79.86099499960324,40.458589999794356],[-79.86062899990536,40.45859399967007],[-79.86064399997396,40.45884199969934],[-79.86037000033758,40.45885699985917],[-79.86017697539599,40.45886826602747],[-79.86037,40.458857],[-79.8607,40.458839],[-79.86099544753368,40.45858999405189]]],[[[-79.86008068016194,40.45887267803856],[-79.8599700003045,40.45887499990986],[-79.85996991493369,40.45887500257777],[-79.85997,40.458875],[-79.86008068016194,40.45887267803856]]],[[[-79.859671,40.459382],[-79.859621986351,40.45929388355013],[-79.85962100032503,40.45935700030838],[-79.8595619998755,40.459359000223415],[-79.85801600016984,40.45940800017375],[-79.85788399992536,40.45897499972377],[-79.85751800022747,40.457923000105694],[-79.85728499970065,40.45724200010204],[-79.85712700041522,40.45729000024111],[-79.85694599976694,40.45734700023352],[-79.85553724538768,40.457385992949874],[-79.855549,40.457517],[-79.856392,40.457492],[-79.856905,40.457477],[-79.856948,40.457602],[-79.857078,40.457979],[-79.857122,40.458105],[-79.857182,40.458278],[-79.857268,40.458526],[-79.8572964,40.4586488],[-79.857305,40.458686],[-79.857306,40.458713],[-79.8573013,40.4587583],[-79.857296,40.458809],[-79.857289,40.458884],[-79.857313,40.458924],[-79.857336,40.458944],[-79.857363,40.45896],[-79.857692,40.459465],[-79.857717,40.459463],[-79.859602,40.459384],[-79.859671,40.459382]]],[[[-79.85555499987197,40.454795000196185],[-79.85547200003131,40.45360599976438],[-79.85495399999745,40.45360999993676],[-79.85456900003297,40.45361300006591],[-79.85456874368363,40.45361300006591],[-79.854572,40.453777],[-79.854777,40.453779],[-79.855273,40.453787],[-79.855345,40.45557],[-79.855377,40.45633],[-79.855466,40.456593],[-79.855487,40.456826],[-79.85553074306938,40.45731352356362],[-79.85552499973477,40.457247000046934],[-79.85549600032074,40.45639799997179],[-79.85549899979549,40.456332999837876],[-79.8555349997805,40.45533500014047],[-79.85555499987197,40.454795000196185]]]]}},{"type":"Feature","properties":{"GEOID":"42003560400","STATE":"42","COUNTY":"003","TRACT":"560400","NAME":"Census Tract 5604","BASENAME":"5604","area_sq_m":502078},"geometry":{"type":"Polygon","coordinates":[[[-79.8943629998836,40.44117500032641],[-79.894271999647,40.44123700008356],[-79.8941789997606,40.44123700008356],[-79.89357000038845,40.44123800031071],[-79.89336799982378,40.441238999854214],[-79.89316899963215,40.441240000081386],[-79.89257500032862,40.44124400030614],[-79.89254299964325,40.441244999849545],[-79.8923769999619,40.44125200007134],[-79.892263999984,40.44125600029537],[-79.89221299993038,40.4412580000655],[-79.89192800042332,40.44124199985195],[-79.89181600027032,40.44123700008356],[-79.89170199956922,40.441229999860205],[-79.89155500015443,40.441223000319816],[-79.89150199955266,40.44121600009501],[-79.89143700015364,40.4412010000992],[-79.89136799965836,40.44117599987084],[-79.89126200025146,40.44113800008023],[-79.89092099976962,40.44101499987302],[-79.8898920002729,40.44067300016511],[-79.88954999996614,40.44056000011314],[-79.88937599988887,40.44050200000056],[-79.88885700003011,40.440329999844046],[-79.88868399977774,40.4402729997746],[-79.88857900019575,40.44023800019979],[-79.88826399965316,40.44013299999863],[-79.88815900007118,40.44009899991133],[-79.88792999974234,40.44002299977475],[-79.88724299965408,40.43979700003046],[-79.88701500004844,40.43972199980218],[-79.88693100038286,40.43969400032449],[-79.88688199997905,40.4396900000075],[-79.88662599988601,40.43968800019073],[-79.88652799997672,40.43968800019073],[-79.88650100021255,40.43968699994051],[-79.8863930002575,40.43968699994051],[-79.88640599977799,40.43974200000798],[-79.88644500013605,40.439906999940376],[-79.88645799965651,40.43996300007403],[-79.88647600009818,40.440069999662484],[-79.88648000029615,40.44009400005794],[-79.88652999962655,40.4403940001763],[-79.8865480000682,40.44050200000056],[-79.88660800034268,40.44071799981228],[-79.88661599984027,40.44074600023083],[-79.88678800026773,40.44136899986118],[-79.88684799964386,40.44158700006586],[-79.88690200007053,40.44178499997158],[-79.88706699992699,40.44237999981806],[-79.88712200017856,40.44257900032993],[-79.88723500015647,40.44299400027166],[-79.88757400009018,40.44424200031208],[-79.887687999893,40.44465799973419],[-79.8876390003875,40.4446420003299],[-79.88757599974,40.44461800019086],[-79.88747199998294,40.44458000029498],[-79.8873509996091,40.444534999814884],[-79.88724000017933,40.44449900022946],[-79.88712800002634,40.44446400012025],[-79.8871819995547,40.44461100031958],[-79.88717599970693,40.444645999668595],[-79.88715800016358,40.44475700002261],[-79.88713399987414,40.4448109998699],[-79.88695099957602,40.44513799991737],[-79.88693399985758,40.4451649996934],[-79.88683699977322,40.44533100015427],[-79.8867449997117,40.44548900026152],[-79.88647199990022,40.44596399987899],[-79.88638099966363,40.44612300001999],[-79.88633499963288,40.446200999719515],[-79.88619900008877,40.446436999941795],[-79.88615499970783,40.44651600010912],[-79.8861100004003,40.4465940000362],[-79.88597399995786,40.44682799995782],[-79.88592999957693,40.44690699966562],[-79.88614300001224,40.44698099993936],[-79.8862626028646,40.4470203629681],[-79.88638,40.447059],[-79.887733,40.447509],[-79.888184,40.447659],[-79.888315,40.44766],[-79.888329,40.447661],[-79.888384,40.447702],[-79.888641,40.447882],[-79.888749,40.447958],[-79.889069,40.448337],[-79.88924082258256,40.44853995163818],[-79.88924199999457,40.4485409998836],[-79.88981600010493,40.44905100028045],[-79.89044399974364,40.449458999862166],[-79.89107300010559,40.449778999838294],[-79.89115400029644,40.449820999927134],[-79.89176799969144,40.45009800024618],[-79.8920380000282,40.4501770002118],[-79.89237199993903,40.45025199971252],[-79.89242299999265,40.45026600033012],[-79.892423,40.45026600030012],[-79.892423,40.450103],[-79.892424,40.45007],[-79.892429,40.449972],[-79.892431,40.44994],[-79.892436,40.449919],[-79.892452,40.449857],[-79.892458,40.449837],[-79.8924622,40.4498211],[-79.892529,40.449568],[-79.892742,40.448764],[-79.892759,40.448701],[-79.892723,40.448492],[-79.892712,40.448427],[-79.892682,40.448232],[-79.892672,40.448168],[-79.892699,40.448099],[-79.89278,40.447895],[-79.892808,40.447827],[-79.892846,40.447761],[-79.892963,40.447565],[-79.8929969,40.4475068],[-79.89302,40.44729],[-79.893071,40.44666],[-79.8930909,40.4464608],[-79.89313,40.446249],[-79.893258,40.445648],[-79.893301,40.445448],[-79.893326,40.445271],[-79.893402,40.444741],[-79.893428,40.444565],[-79.89346,40.444407],[-79.893556,40.443936],[-79.893589,40.44378],[-79.893611,40.443705],[-79.893678,40.443481],[-79.893701,40.443407],[-79.893724,40.443333],[-79.893795,40.443111],[-79.893819,40.443038],[-79.893839,40.442963],[-79.893902,40.442738],[-79.893923,40.442664],[-79.893944,40.442591],[-79.894009,40.442374],[-79.894032,40.442302],[-79.894054,40.442226],[-79.894114,40.44203],[-79.894119,40.441997],[-79.894134,40.441919],[-79.894158,40.441847],[-79.89423061872697,40.44163979456574],[-79.89423099963912,40.44163799974514],[-79.89424192828601,40.4416101832691],[-79.894242,40.44161],[-79.89424834908502,40.44158968292797],[-79.8942569995784,40.44156199998105],[-79.89427389758654,40.44150209037496],[-79.894279,40.441484],[-79.894336,40.44129],[-79.89433753544598,40.4412828985623],[-79.89434399961702,40.44125300029827],[-79.8943629998836,40.44117500032641]]]}},{"type":"Feature","properties":{"GEOID":"42003560500","STATE":"42","COUNTY":"003","TRACT":"560500","NAME":"Census Tract 5605","BASENAME":"5605","area_sq_m":460636,"absorbed_sliver_tract_geoids":["42003515401","42003141200"]},"geometry":{"type":"MultiPolygon","coordinates":[[[[-79.8954447,40.4347457],[-79.8951862361051,40.43439659615042],[-79.8950663,40.4342346],[-79.8950283,40.4341832],[-79.8949966,40.4341395],[-79.89455617523208,40.43353285081058],[-79.89448400025744,40.43356300029116],[-79.89410400031583,40.43372500001232],[-79.8940530002622,40.43374400029589],[-79.89364800020626,40.43391499987169],[-79.89360021052268,40.43393491188225],[-79.893588,40.433967],[-79.893483,40.434001],[-79.89325727329039,40.43407624223654],[-79.89307999994368,40.434157000095624],[-79.89305200035459,40.434163000039234],[-79.8926730002379,40.43432099972962],[-79.89259100022215,40.43436099992992],[-79.89210999999821,40.43456600015554],[-79.89207499983812,40.43458199990668],[-79.8916949998965,40.43473499972805],[-79.89161500042889,40.43476899979306],[-79.89153699971276,40.434804000163766],[-79.89116000014421,40.434961999715405],[-79.8911309998319,40.434972999821845],[-79.89109800021996,40.43498599988318],[-79.89072199957799,40.43514600032656],[-79.89064299993525,40.435176000281885],[-79.89055500007171,40.435212000073776],[-79.88996599989275,40.43546000024388],[-79.88975199963251,40.435543999829385],[-79.88957900027847,40.43561300011861],[-79.88954400011836,40.43559699992905],[-79.88940699985102,40.435642999865564],[-79.88921799970512,40.43570800018298],[-79.88877900021231,40.435865000038234],[-79.88868499960266,40.43589299974309],[-79.88860699978484,40.43591999981373],[-79.88773999977154,40.4362270001583],[-79.88765500028104,40.436256000013735],[-79.88718300027794,40.436425000124714],[-79.88603800043026,40.436830999868995],[-79.88596599956195,40.436855000053335],[-79.88594800001857,40.43685899985532],[-79.8858989996148,40.436872000235695],[-79.88578200033722,40.43684299996226],[-79.88593399977489,40.437631000256864],[-79.8859909996763,40.437923999859066],[-79.88604599992789,40.43816400015004],[-79.88611399969994,40.43846099987095],[-79.88621800035533,40.43888200014393],[-79.88627699990654,40.43912199974982],[-79.8863000003711,40.43923500016782],[-79.88636899996807,40.439574000282256],[-79.8863930002575,40.43968699994051],[-79.88650100021255,40.43968699994051],[-79.88652799997672,40.43968800019073],[-79.88662599988601,40.43968800019073],[-79.88688199997905,40.4396900000075],[-79.88693100038286,40.43969400032449],[-79.88701500004844,40.43972199980218],[-79.88724299965408,40.43979700003046],[-79.88792999974234,40.44002299977475],[-79.88815900007118,40.44009899991133],[-79.88826399965316,40.44013299999863],[-79.88857900019575,40.44023800019979],[-79.88868399977774,40.4402729997746],[-79.88885700003011,40.440329999844046],[-79.88937599988887,40.44050200000056],[-79.88954999996614,40.44056000011314],[-79.8898920002729,40.44067300016511],[-79.89092099976962,40.44101499987302],[-79.89126200025146,40.44113800008023],[-79.89136799965836,40.44117599987084],[-79.89143700015364,40.4412010000992],[-79.89150199955266,40.44121600009501],[-79.89155500015443,40.441223000319816],[-79.89170199956922,40.441229999860205],[-79.89181600027032,40.44123700008356],[-79.89192800042332,40.44124199985195],[-79.89221299993038,40.4412580000655],[-79.892263999984,40.44125600029537],[-79.8923769999619,40.44125200007134],[-79.89254299964325,40.441244999849545],[-79.89257500032862,40.44124400030614],[-79.89316899963215,40.441240000081386],[-79.89336799982378,40.441238999854214],[-79.89357000038845,40.44123800031071],[-79.8941789997606,40.44123700008356],[-79.894271999647,40.44123700008356],[-79.8943629998836,40.44117500032641],[-79.89434399961702,40.44125300029827],[-79.89433753544598,40.4412828985623],[-79.894344,40.441253],[-79.894363,40.441175],[-79.894394,40.441041],[-79.89445429422493,40.440787889868275],[-79.89449,40.440638],[-79.89450824053895,40.440562187759944],[-79.894522,40.440505],[-79.894554,40.44037],[-79.89463007324866,40.44004568772937],[-79.894649,40.439965],[-79.8946765,40.4398531],[-79.89468198014944,40.43983107976316],[-79.894682,40.439831],[-79.8947020299801,40.439743368837064],[-79.894706,40.439726],[-79.89471324182536,40.439695369035995],[-79.89478,40.439413],[-79.894806,40.439309],[-79.89481757000122,40.439257210470714],[-79.894827,40.439215],[-79.89486232680333,40.43906282300106],[-79.894892,40.438935],[-79.89490498741262,40.43888248567943],[-79.894915,40.438842],[-79.89491024429125,40.438827138410176],[-79.894907,40.438817],[-79.89488609620592,40.43874333901136],[-79.894886,40.438743],[-79.894879,40.438719],[-79.89487900003103,40.43871899981581],[-79.894911,40.438529],[-79.895011,40.43796],[-79.895044,40.437771],[-79.895042,40.43775],[-79.895039,40.437688],[-79.8950388804071,40.43768560814206],[-79.895038,40.437668],[-79.895034,40.437579],[-79.895025,40.437312],[-79.895022,40.437223],[-79.89501,40.437137],[-79.894977,40.436879],[-79.894966,40.436793],[-79.894984,40.436717],[-79.895039,40.436493],[-79.895058,40.436418],[-79.895107,40.436334],[-79.895258,40.436082],[-79.895308,40.435999],[-79.895322,40.43597],[-79.895367,40.435884],[-79.895382,40.435856],[-79.895393,40.435634],[-79.895427,40.434969],[-79.89544396656927,40.43475495282944],[-79.8954447,40.4347457]]],[[[-79.89427389758654,40.44150209037496],[-79.8942569995784,40.44156199998105],[-79.89424834908502,40.44158968292797],[-79.894257,40.441562],[-79.89427389758654,40.44150209037496]]],[[[-79.89424192828601,40.4416101832691],[-79.89423099963912,40.44163799974514],[-79.89423061872697,40.44163979456574],[-79.894233,40.441633],[-79.89424192828601,40.4416101832691]]]]}},{"type":"Feature","properties":{"GEOID":"42003561400","STATE":"42","COUNTY":"003","TRACT":"561400","NAME":"Census Tract 5614","BASENAME":"5614","area_sq_m":1792006},"geometry":{"type":"Polygon","coordinates":[[[-79.87202700030005,40.44680000002176],[-79.87200300001061,40.44678200015442],[-79.87193400041365,40.44673100027611],[-79.87191099994911,40.446713999852335],[-79.87185800024565,40.44667400016531],[-79.8717000000619,40.44655700003824],[-79.87164800018337,40.44651799972277],[-79.87154199987816,40.446439000241384],[-79.87122600040897,40.44620500033268],[-79.8711219997536,40.44612300001999],[-79.8710029999279,40.44602700016043],[-79.87098299983641,40.44600900008602],[-79.87073000011644,40.44578199979763],[-79.87058399962824,40.445649999798405],[-79.87045099955886,40.44553100029678],[-79.87033500010622,40.44542700032427],[-79.86998699995168,40.44511500012495],[-79.86987200032394,40.44501100019243],[-79.86975500014807,40.444905999926384],[-79.86940699999354,40.44459199968874],[-79.86929099964257,40.44448800031427],[-79.86917000016707,40.44456199983313],[-79.86880899959372,40.44478500012611],[-79.86875599989028,40.44481799972034],[-79.86868300009536,40.44484800014536],[-79.86864899976015,40.44477999993758],[-79.86854900020106,40.44457900011756],[-79.86851599969077,40.44451199981607],[-79.86847499968289,40.44442799981314],[-79.86835199965925,40.44417599985817],[-79.86831200037459,40.44409200011901],[-79.86839600004018,40.444041000250586],[-79.86851200039114,40.44397899966136],[-79.86859699988162,40.44394999971894],[-79.86868800011823,40.44392799970719],[-79.86991499998166,40.44375399973316],[-79.87007499981523,40.44373200034087],[-79.87032599988538,40.44370499998924],[-79.87059600022212,40.44367499973772],[-79.87066200034437,40.4436350002931],[-79.87072699974338,40.44358199969338],[-79.870741999812,40.44357100031185],[-79.87086300018582,40.443426999789274],[-79.87087800025444,40.44339999999879],[-79.87091599988926,40.44331499977727],[-79.87094100000363,40.44316200033829],[-79.87095500024732,40.44308500004651],[-79.87097500033882,40.44300499974765],[-79.87098700003438,40.44290099996874],[-79.87101799999651,40.442811999668706],[-79.87104800013375,40.442728000276006],[-79.87117500035535,40.44239699997067],[-79.87123899992946,40.44225999978466],[-79.87132500014317,40.44208099988933],[-79.87139399974016,40.44194900014247],[-79.87160299997751,40.44155499979154],[-79.87162200024409,40.44152099973979],[-79.87164300016049,40.441413999726095],[-79.8716570004042,40.44134199992772],[-79.8717000000619,40.441127000298735],[-79.87171400030562,40.441034000147624],[-79.87174400044283,40.440778999756894],[-79.87175100011554,40.44065800004815],[-79.87161200019835,40.44074499999636],[-79.87143899994601,40.440833000065155],[-79.87124800015029,40.440930000054124],[-79.86942700008503,40.44178399975251],[-79.86925499965757,40.44186499967136],[-79.86904299994548,40.441963999971364],[-79.86900899961029,40.44198000001308],[-79.86890700040134,40.44202800011533],[-79.86887300006616,40.442044000141806],[-79.86826200014588,40.442333000178024],[-79.86780799968612,40.44255699986941],[-79.8667859998621,40.443124000302966],[-79.86676999996858,40.443133000043446],[-79.86663900044732,40.44320900008238],[-79.86659099986842,40.443237000146986],[-79.86652700029434,40.44327100001449],[-79.86650600037794,40.44328300032556],[-79.86643799970756,40.44332000007478],[-79.86618599981247,40.44345000015929],[-79.86607299983457,40.44350899997273],[-79.86600900026048,40.44354200019341],[-79.86595800020686,40.4435600002448],[-79.86566799977862,40.44366600006987],[-79.86560300037961,40.44368500027885],[-79.86548299983069,40.44372100030022],[-79.86531200012648,40.44377199972778],[-79.8647649997803,40.44392000026045],[-79.86390000031513,40.44415500010414],[-79.86336499966451,40.444302000295586],[-79.86266800042883,40.44448800031427],[-79.8623019998326,40.444565999860195],[-79.86193299976166,40.44462100003779],[-79.86155799984294,40.44467099997371],[-79.86125800026728,40.44470899981809],[-79.8609429997247,40.44476100003812],[-79.86093436854462,40.44476315784624],[-79.8609516,40.4447705],[-79.86084975853566,40.44478431047692],[-79.86071900031703,40.44481700023007],[-79.85960000040863,40.44499400001726],[-79.85878500027387,40.44512899976174],[-79.85859045684981,40.445152290314354],[-79.8585904,40.4451523],[-79.8584914,40.445171],[-79.8583862,40.4451908],[-79.8583663,40.4451937],[-79.8576358,40.4453004],[-79.8571329,40.4453739],[-79.8564316,40.4454763],[-79.8560103,40.4455378],[-79.8553108,40.44564],[-79.85404422759846,40.445824951998496],[-79.85405792754138,40.44642484153126],[-79.854084,40.446594],[-79.854115,40.446786],[-79.854126,40.446852],[-79.854162,40.44705],[-79.854175,40.447117],[-79.854214,40.447611],[-79.854331,40.449093],[-79.854371,40.449587],[-79.854386,40.449745],[-79.854434,40.450219],[-79.85445,40.450377],[-79.854434,40.450555],[-79.854387,40.451091],[-79.854372,40.45127],[-79.854411,40.451569],[-79.854531,40.452468],[-79.854571,40.452768],[-79.854569,40.452859],[-79.854563,40.453132],[-79.854561,40.453223],[-79.85456874368363,40.45361300006591],[-79.85456900003297,40.45361300006591],[-79.85495399999745,40.45360999993676],[-79.85547200003131,40.45360599976438],[-79.85555499987197,40.454795000196185],[-79.8555349997805,40.45533500014047],[-79.85549899979549,40.456332999837876],[-79.85549600032074,40.45639799997179],[-79.85552499973477,40.457247000046934],[-79.85553074306938,40.45731352356362],[-79.85553724538768,40.457385992949874],[-79.85694599976694,40.45734700023352],[-79.85712700041522,40.45729000024111],[-79.85728499970065,40.45724200010204],[-79.85751800022747,40.457923000105694],[-79.85788399992536,40.45897499972377],[-79.85801600016984,40.45940800017375],[-79.8595619998755,40.459359000223415],[-79.85962100032503,40.45935700030838],[-79.859621986351,40.45929388355013],[-79.859399,40.458893],[-79.859541,40.458888],[-79.85996991493369,40.45887500257777],[-79.8599700003045,40.45887499990986],[-79.86008068016194,40.45887267803856],[-79.860113,40.458872],[-79.86017697539599,40.45886826602747],[-79.86037000033758,40.45885699985917],[-79.86064399997396,40.45884199969934],[-79.86062899990536,40.45859399967007],[-79.86099499960324,40.458589999794356],[-79.86099544753368,40.45858999405189],[-79.860999,40.458587],[-79.861048,40.45857],[-79.861294,40.458491],[-79.861529,40.458489],[-79.862236,40.458485],[-79.862472,40.458484],[-79.862765,40.458492],[-79.863646,40.458517],[-79.86394,40.458526],[-79.86422,40.458523],[-79.86506,40.458514],[-79.86534,40.458511],[-79.866104,40.458527],[-79.86702781219317,40.45854699593492],[-79.86702799971144,40.45854699974874],[-79.86772099964747,40.45736599999243],[-79.86810899985564,40.456706999967956],[-79.867717,40.45662],[-79.866541,40.456359],[-79.866149,40.456272],[-79.865728,40.4561],[-79.865787,40.455799],[-79.866231,40.453558],[-79.86638,40.452812],[-79.866469,40.452404],[-79.866737,40.451184],[-79.866827,40.450777],[-79.866852,40.450656],[-79.866871,40.450568],[-79.86689499957032,40.450568],[-79.86689499964204,40.45056799966095],[-79.86695099971855,40.45029799987529],[-79.86713999986443,40.449392000323684],[-79.86756099981392,40.44938900000607],[-79.8675030000876,40.449281000104634],[-79.86743699996535,40.44916900027669],[-79.86739500013256,40.44909699989811],[-79.8675530003163,40.44909300014064],[-79.86803000034229,40.449084999941434],[-79.86818900035095,40.449082000293735],[-79.86835000000943,40.44907799985176],[-79.86883299988318,40.449069000223766],[-79.86888899995967,40.44906800011309],[-79.86899400043998,40.44906100002164],[-79.8689890004171,40.449009999821946],[-79.86900100011268,40.44899199986283],[-79.86913099980902,40.44889399977306],[-79.8696999998965,40.44847000031899],[-79.8698549997072,40.44836299974546],[-79.86988900004238,40.44832899971922],[-79.87000100019537,40.44821399998556],[-79.87009599973163,40.44811799969457],[-79.87024399986963,40.44798299980102],[-79.87036400041853,40.44790100029036],[-79.87049699958962,40.44781199977449],[-79.87064800010067,40.44771100030606],[-79.8711019996621,40.44740899975804],[-79.87125399999807,40.44730899982081],[-79.87140799998386,40.447206000003355],[-79.87186999994121,40.446898999889775],[-79.87197700007134,40.44682900010178],[-79.87202700030005,40.44680000002176]]]}},{"type":"Feature","properties":{"GEOID":"42003561500","STATE":"42","COUNTY":"003","TRACT":"561500","NAME":"Census Tract 5615","BASENAME":"5615","area_sq_m":1248273},"geometry":{"type":"MultiPolygon","coordinates":[[[[-79.87771700027656,40.44134799991386],[-79.87680000003454,40.44100800031024],[-79.87663799965284,40.440842000112305],[-79.87638599975777,40.44000599970549],[-79.87634300010006,40.43990599969342],[-79.87632100035876,40.43985399981979],[-79.87628000035086,40.43975700032934],[-79.87623599996994,40.439712000038895],[-79.8761980003351,40.439672000287196],[-79.87599400012061,40.43946000018041],[-79.8758610000512,40.43932199990648],[-79.875762000317,40.439259999750625],[-79.87526100000159,40.43898299988877],[-79.87515800006942,40.43892600004469],[-79.87502099980206,40.4388170001602],[-79.87488699990777,40.43870899968011],[-79.87470100013493,40.43853799998954],[-79.87437600044493,40.43825299976668],[-79.87404099981084,40.43798500028773],[-79.87393299985582,40.437844999849375],[-79.87384800036531,40.43765300027836],[-79.8737339996642,40.437469999973885],[-79.87366900026518,40.437343000119895],[-79.8736209996863,40.437248999917344],[-79.87351299973125,40.43708499990393],[-79.87324300029283,40.436799000065754],[-79.87298200017692,40.43655199966155],[-79.87275600022112,40.43633800005591],[-79.87271100001527,40.4363009998825],[-79.87259899986228,40.436218000177064],[-79.8725389995878,40.436173000252744],[-79.87229599991356,40.436022000210656],[-79.87211199979055,40.435930999763436],[-79.87196899967542,40.43585999986997],[-79.87178899975036,40.435777999928526],[-79.87173100002404,40.43575200010969],[-79.87155899959659,40.43567399990908],[-79.87150199969518,40.43564800004997],[-79.87132199977013,40.43560999986969],[-79.87107999992081,40.43551000015632],[-79.86954699973562,40.43483600023273],[-79.86866499965369,40.43444300023194],[-79.8685319995843,40.434383999983],[-79.86832800026811,40.43426999996971],[-79.86779599999055,40.43400200034069],[-79.86717500002453,40.433707000062576],[-79.86688999961919,40.43357999993833],[-79.86683100006795,40.433551000296276],[-79.86652100044655,40.43340199983973],[-79.86647600024071,40.43338399980352],[-79.86643799970756,40.43336900011155],[-79.86617599976674,40.43324800005801],[-79.86555200032599,40.43288800032901],[-79.86547500033308,40.43298100012453],[-79.86540400018798,40.433065999736954],[-79.86533700024083,40.433152999936866],[-79.86459499990099,40.43413500029773],[-79.86385900030723,40.43507399996903],[-79.86382599979696,40.43513999978691],[-79.8631239996401,40.43608700016167],[-79.86306500008885,40.43616600018584],[-79.86149799956848,40.438222000228535],[-79.86155799984294,40.438209999697726],[-79.86194600018045,40.43813299988714],[-79.86213699997617,40.43810299988378],[-79.86311899961721,40.437886999874785],[-79.86343800035776,40.43781999974044],[-79.86379700038296,40.437738999733796],[-79.864488298193,40.43758652009377],[-79.864737,40.437492],[-79.86460784336265,40.43756016852781],[-79.86510799991197,40.43745199965922],[-79.86327199977809,40.43842799989078],[-79.86315600032543,40.4384900001302],[-79.86283800030814,40.438659000095456],[-79.86251799974269,40.438849999949426],[-79.86160499969861,40.43939199999165],[-79.86189599995176,40.4406479997404],[-79.86198200016547,40.44102899968007],[-79.86209500014337,40.44152999969483],[-79.86165199955427,40.4416610000436],[-79.86165199955427,40.44166635154602],[-79.861664,40.441755],[-79.861507,40.441786],[-79.861455,40.441801],[-79.861226,40.44187],[-79.860841,40.441985],[-79.860792,40.442],[-79.86064,40.442055],[-79.86027456964288,40.44212282300615],[-79.8602740000781,40.44212300000307],[-79.85932800042208,40.442417000064324],[-79.85878199990081,40.442585999729125],[-79.85839478046837,40.44270469581761],[-79.8583096,40.4427426],[-79.8585872,40.4430161],[-79.8591368,40.4435579],[-79.8593053,40.443724],[-79.8595174,40.4439006],[-79.8599236,40.4442387],[-79.8600677,40.4443431],[-79.8602287,40.4444489],[-79.8604104,40.4445399],[-79.860681,40.4446552],[-79.86093436854462,40.44476315784624],[-79.8609429997247,40.44476100003812],[-79.86125800026728,40.44470899981809],[-79.86155799984294,40.44467099997371],[-79.86193299976166,40.44462100003779],[-79.8623019998326,40.444565999860195],[-79.86266800042883,40.44448800031427],[-79.86336499966451,40.444302000295586],[-79.86390000031513,40.44415500010414],[-79.8647649997803,40.44392000026045],[-79.86531200012648,40.44377199972778],[-79.86548299983069,40.44372100030022],[-79.86560300037961,40.44368500027885],[-79.86566799977862,40.44366600006987],[-79.86595800020686,40.4435600002448],[-79.86600900026048,40.44354200019341],[-79.86607299983457,40.44350899997273],[-79.86618599981247,40.44345000015929],[-79.86643799970756,40.44332000007478],[-79.86650600037794,40.44328300032556],[-79.86652700029434,40.44327100001449],[-79.86659099986842,40.443237000146986],[-79.86663900044732,40.44320900008238],[-79.86676999996858,40.443133000043446],[-79.8667859998621,40.443124000302966],[-79.86780799968612,40.44255699986941],[-79.86826200014588,40.442333000178024],[-79.86887300006616,40.442044000141806],[-79.86890700040134,40.44202800011533],[-79.86900899961029,40.44198000001308],[-79.86904299994548,40.441963999971364],[-79.86925499965757,40.44186499967136],[-79.86942700008503,40.44178399975251],[-79.87124800015029,40.440930000054124],[-79.87143899994601,40.440833000065155],[-79.87161200019835,40.44074499999636],[-79.87175100011554,40.44065800004815],[-79.87174400044283,40.440778999756894],[-79.87171400030562,40.441034000147624],[-79.8717000000619,40.441127000298735],[-79.8716570004042,40.44134199992772],[-79.87164300016049,40.441413999726095],[-79.87162200024409,40.44152099973979],[-79.87160299997751,40.44155499979154],[-79.87139399974016,40.44194900014247],[-79.87132500014317,40.44208099988933],[-79.87123899992946,40.44225999978466],[-79.87117500035535,40.44239699997067],[-79.87104800013375,40.442728000276006],[-79.87101799999651,40.442811999668706],[-79.87098700003438,40.44290099996874],[-79.87097500033882,40.44300499974765],[-79.87095500024732,40.44308500004651],[-79.87094100000363,40.44316200033829],[-79.87091599988926,40.44331499977727],[-79.87087800025444,40.44339999999879],[-79.87086300018582,40.443426999789274],[-79.870741999812,40.44357100031185],[-79.87072699974338,40.44358199969338],[-79.87066200034437,40.4436350002931],[-79.87059600022212,40.44367499973772],[-79.87032599988538,40.44370499998924],[-79.87007499981523,40.44373200034087],[-79.86991499998166,40.44375399973316],[-79.86868800011823,40.44392799970719],[-79.86859699988162,40.44394999971894],[-79.86851200039114,40.44397899966136],[-79.86839600004018,40.444041000250586],[-79.86831200037459,40.44409200011901],[-79.86835199965925,40.44417599985817],[-79.86847499968289,40.44442799981314],[-79.86851599969077,40.44451199981607],[-79.86854900020106,40.44457900011756],[-79.86864899976015,40.44477999993758],[-79.86868300009536,40.44484800014536],[-79.86875599989028,40.44481799972034],[-79.86880899959372,40.44478500012611],[-79.86917000016707,40.44456199983313],[-79.86929099964257,40.44448800031427],[-79.86940699999354,40.44459199968874],[-79.86975500014807,40.444905999926384],[-79.86987200032394,40.44501100019243],[-79.86998699995168,40.44511500012495],[-79.87033500010622,40.44542700032427],[-79.87045099955886,40.44553100029678],[-79.87058399962824,40.445649999798405],[-79.87073000011644,40.44578199979763],[-79.87098299983641,40.44600900008602],[-79.8710029999279,40.44602700016043],[-79.8711219997536,40.44612300001999],[-79.87122600040897,40.44620500033268],[-79.87154199987816,40.446439000241384],[-79.87164800018337,40.44651799972277],[-79.8717000000619,40.44655700003824],[-79.87185800024565,40.44667400016531],[-79.87191099994911,40.446713999852335],[-79.87193400041365,40.44673100027611],[-79.87200300001061,40.44678200015442],[-79.87202700030005,40.44680000002176],[-79.87204300019359,40.446789999944144],[-79.87266300033468,40.44655599989023],[-79.87358899989924,40.44620699995559],[-79.87380200033455,40.44613599997622],[-79.87460599970038,40.445919999799315],[-79.87490000032656,40.4458419997737],[-79.87526600002447,40.44574799983294],[-79.87527299969715,40.44572699988644],[-79.87532200010095,40.44563900007158],[-79.875502000026,40.44531900020883],[-79.87556200030046,40.44521300025594],[-79.87561900020188,40.44510899979139],[-79.87575700029414,40.44486400018423],[-79.87578900008118,40.444798000341066],[-79.87584299960953,40.44469299974232],[-79.87588000031779,40.444618999684096],[-79.87592399980039,40.44452900011321],[-79.8759740000291,40.444439999917655],[-79.87627299977987,40.443912000129146],[-79.87637300023728,40.443736999923736],[-79.87646100010083,40.443578000291375],[-79.87672700023961,40.44310399973604],[-79.87681599992808,40.44294600017551],[-79.87686000030901,40.44286500019189],[-79.87699599985314,40.442622000339085],[-79.87704199988389,40.442542000172836],[-79.87708500043992,40.44246400032927],[-79.87721500013625,40.442231999996714],[-79.87725899961886,40.442155000006956],[-79.87730399982469,40.44207399975391],[-79.87744199991695,40.4418309997764],[-79.8774879999477,40.441751000036106],[-79.87771700027656,40.44134799991386]]],[[[-79.86084975853566,40.44478431047692],[-79.8603624,40.4448504],[-79.85859045684981,40.445152290314354],[-79.85878500027387,40.44512899976174],[-79.85960000040863,40.44499400001726],[-79.86071900031703,40.44481700023007],[-79.86084975853566,40.44478431047692]]]]}},{"type":"Feature","properties":{"GEOID":"42003564700","STATE":"42","COUNTY":"003","TRACT":"564700","NAME":"Census Tract 5647","BASENAME":"5647","area_sq_m":931029},"geometry":{"type":"Polygon","coordinates":[[[-79.887687999893,40.44465799973419],[-79.88757400009018,40.44424200031208],[-79.88723500015647,40.44299400027166],[-79.88712200017856,40.44257900032993],[-79.88706699992699,40.44237999981806],[-79.88690200007053,40.44178499997158],[-79.88684799964386,40.44158700006586],[-79.88678800026773,40.44136899986118],[-79.88661599984027,40.44074600023083],[-79.88660800034268,40.44071799981228],[-79.8865480000682,40.44050200000056],[-79.88652999962655,40.4403940001763],[-79.88648000029615,40.44009400005794],[-79.88647600009818,40.440069999662484],[-79.88645799965651,40.43996300007403],[-79.88644500013605,40.439906999940376],[-79.88640599977799,40.43974200000798],[-79.8863930002575,40.43968699994051],[-79.88636899996807,40.439574000282256],[-79.8863000003711,40.43923500016782],[-79.88627699990654,40.43912199974982],[-79.88621800035533,40.43888200014393],[-79.88611399969994,40.43846099987095],[-79.88604599992789,40.43816400015004],[-79.8859909996763,40.437923999859066],[-79.88593399977489,40.437631000256864],[-79.88578200033722,40.43684299996226],[-79.88560900008488,40.43680099996841],[-79.88492600019457,40.43663400002642],[-79.88408799959527,40.43643799990525],[-79.88361700031538,40.436329000089486],[-79.88343700039033,40.436286999774616],[-79.88265599969242,40.43608700016167],[-79.8826120002098,40.436060000158086],[-79.88247999996533,40.435979999703996],[-79.8824359995844,40.43595399996324],[-79.88236878752298,40.43591343030667],[-79.882325,40.435887],[-79.88232496719323,40.43588698017718],[-79.88221499965145,40.435821000185456],[-79.88211928045749,40.435762698161625],[-79.8819940075647,40.435687004570816],[-79.88199399971852,40.43568699983483],[-79.88197700000009,40.43567700015514],[-79.88188699958839,40.43561699999448],[-79.88181384433739,40.43556900988532],[-79.881762,40.435535],[-79.881719,40.435509],[-79.88152137487783,40.43539003742646],[-79.88120899972097,40.43520200032345],[-79.88103899984165,40.43510000005008],[-79.88097015111704,40.43505811692953],[-79.880919,40.435027],[-79.880559,40.434811],[-79.8805024551214,40.434776787972616],[-79.88043999961694,40.43473900033991],[-79.88038370145257,40.43470490369663],[-79.880369,40.434696],[-79.880272,40.434637],[-79.87977,40.434334],[-79.879603,40.434234],[-79.87956066940777,40.434208316269874],[-79.8795140000524,40.43418000021849],[-79.87935264390107,40.43408300999518],[-79.879331,40.43407],[-79.8792464578583,40.43402432780851],[-79.87924399990875,40.43402299995187],[-79.87924399904291,40.43402299949516],[-79.87918099996648,40.43398999974038],[-79.87913499993572,40.434028000152445],[-79.87753300015356,40.43550499996165],[-79.87741116526024,40.43543170101692],[-79.877204,40.435605],[-79.876982,40.435792],[-79.876725,40.435563],[-79.875758,40.435265],[-79.875739,40.435261],[-79.87495399000942,40.43509778010097],[-79.87495300003002,40.43509800009677],[-79.87417999972801,40.435264000119055],[-79.87423699962943,40.435015999909844],[-79.87408199981873,40.43439399985503],[-79.87403099976511,40.43419200010113],[-79.87359899994497,40.43408900001331],[-79.87272281342955,40.43387844337792],[-79.872709,40.4338771],[-79.8722429,40.4338193],[-79.87226962655474,40.43376907099042],[-79.87219399980631,40.433750000276405],[-79.87202800012497,40.433707000062576],[-79.8719250001928,40.433681000126654],[-79.87199600033792,40.43354300029854],[-79.87195799980476,40.43352599995825],[-79.87160200015262,40.43337599978592],[-79.87131400027252,40.43325400008273],[-79.87077000029939,40.433024999784465],[-79.87053799959749,40.43292599999634],[-79.87040399970319,40.43287000015521],[-79.86979399960784,40.43261199986973],[-79.86911800028854,40.43232600015092],[-79.86884499957874,40.43221099970594],[-79.8684830000788,40.432056999931724],[-79.86760003939233,40.43168229016562],[-79.86657383243903,40.43156022289062],[-79.8658219997644,40.43255999982487],[-79.86576300021318,40.43263800021899],[-79.86563799964138,40.43278599996421],[-79.86555200032599,40.43288800032901],[-79.86617599976674,40.43324800005801],[-79.86643799970756,40.43336900011155],[-79.86647600024071,40.43338399980352],[-79.86652100044655,40.43340199983973],[-79.86683100006795,40.433551000296276],[-79.86688999961919,40.43357999993833],[-79.86717500002453,40.433707000062576],[-79.86779599999055,40.43400200034069],[-79.86832800026811,40.43426999996971],[-79.8685319995843,40.434383999983],[-79.86866499965369,40.43444300023194],[-79.86954699973562,40.43483600023273],[-79.87107999992081,40.43551000015632],[-79.87132199977013,40.43560999986969],[-79.87150199969518,40.43564800004997],[-79.87155899959659,40.43567399990908],[-79.87173100002404,40.43575200010969],[-79.87178899975036,40.435777999928526],[-79.87196899967542,40.43585999986997],[-79.87211199979055,40.435930999763436],[-79.87229599991356,40.436022000210656],[-79.8725389995878,40.436173000252744],[-79.87259899986228,40.436218000177064],[-79.87271100001527,40.4363009998825],[-79.87275600022112,40.43633800005591],[-79.87298200017692,40.43655199966155],[-79.87324300029283,40.436799000065754],[-79.87351299973125,40.43708499990393],[-79.8736209996863,40.437248999917344],[-79.87366900026518,40.437343000119895],[-79.8737339996642,40.437469999973885],[-79.87384800036531,40.43765300027836],[-79.87393299985582,40.437844999849375],[-79.87404099981084,40.43798500028773],[-79.87437600044493,40.43825299976668],[-79.87470100013493,40.43853799998954],[-79.87488699990777,40.43870899968011],[-79.87502099980206,40.4388170001602],[-79.87515800006942,40.43892600004469],[-79.87526100000159,40.43898299988877],[-79.875762000317,40.439259999750625],[-79.8758610000512,40.43932199990648],[-79.87599400012061,40.43946000018041],[-79.8761980003351,40.439672000287196],[-79.87623599996994,40.439712000038895],[-79.87628000035086,40.43975700032934],[-79.87632100035876,40.43985399981979],[-79.87634300010006,40.43990599969342],[-79.87638599975777,40.44000599970549],[-79.87663799965284,40.440842000112305],[-79.87680000003454,40.44100800031024],[-79.87771700027656,40.44134799991386],[-79.87935300039392,40.44188900010966],[-79.8796270000303,40.441978999796916],[-79.88044899983777,40.44225200013941],[-79.88072400019738,40.44234300023511],[-79.8809640003969,40.442421999744944],[-79.88168400009712,40.44265999997451],[-79.88192500012154,40.44274000000032],[-79.88248699963802,40.442926000239254],[-79.88417299998406,40.443483999919046],[-79.88453899968196,40.44360600020232],[-79.88473500039885,40.4436740002305],[-79.88496200017958,40.44375000034138],[-79.8856450000699,40.44397899966136],[-79.88587299967551,40.44405600029633],[-79.88612299992077,40.44413799971247],[-79.88661099981739,40.4442999999324],[-79.88681900022986,40.44436600026455],[-79.88687600013127,40.44438400009528],[-79.88712800002634,40.44446400012025],[-79.88724000017933,40.44449900022946],[-79.8873509996091,40.444534999814884],[-79.88747199998294,40.44458000029498],[-79.88757599974,40.44461800019086],[-79.8876390003875,40.4446420003299],[-79.887687999893,40.44465799973419]]]}},{"type":"Feature","properties":{"GEOID":"42003564800","STATE":"42","COUNTY":"003","TRACT":"564800","NAME":"Census Tract 5648","BASENAME":"5648","area_sq_m":810163},"geometry":{"type":"Polygon","coordinates":[[[-79.8871819995547,40.44461100031958],[-79.88712800002634,40.44446400012025],[-79.88687600013127,40.44438400009528],[-79.88681900022986,40.44436600026455],[-79.88661099981739,40.4442999999324],[-79.88612299992077,40.44413799971247],[-79.88587299967551,40.44405600029633],[-79.8856450000699,40.44397899966136],[-79.88496200017958,40.44375000034138],[-79.88473500039885,40.4436740002305],[-79.88453899968196,40.44360600020232],[-79.88417299998406,40.443483999919046],[-79.88248699963802,40.442926000239254],[-79.88192500012154,40.44274000000032],[-79.88168400009712,40.44265999997451],[-79.8809640003969,40.442421999744944],[-79.88072400019738,40.44234300023511],[-79.88044899983777,40.44225200013941],[-79.8796270000303,40.441978999796916],[-79.87935300039392,40.44188900010966],[-79.87771700027656,40.44134799991386],[-79.8774879999477,40.441751000036106],[-79.87744199991695,40.4418309997764],[-79.87730399982469,40.44207399975391],[-79.87725899961886,40.442155000006956],[-79.87721500013625,40.442231999996714],[-79.87708500043992,40.44246400032927],[-79.87704199988389,40.442542000172836],[-79.87699599985314,40.442622000339085],[-79.87686000030901,40.44286500019189],[-79.87681599992808,40.44294600017551],[-79.87672700023961,40.44310399973604],[-79.87646100010083,40.443578000291375],[-79.87637300023728,40.443736999923736],[-79.87627299977987,40.443912000129146],[-79.8759740000291,40.444439999917655],[-79.87592399980039,40.44452900011321],[-79.87588000031779,40.444618999684096],[-79.87584299960953,40.44469299974232],[-79.87578900008118,40.444798000341066],[-79.87575700029414,40.44486400018423],[-79.87561900020188,40.44510899979139],[-79.87556200030046,40.44521300025594],[-79.875502000026,40.44531900020883],[-79.87532200010095,40.44563900007158],[-79.87527299969715,40.44572699988644],[-79.87526600002447,40.44574799983294],[-79.87490000032656,40.4458419997737],[-79.87460599970038,40.445919999799315],[-79.87380200033455,40.44613599997622],[-79.87358899989924,40.44620699995559],[-79.87266300033468,40.44655599989023],[-79.87204300019359,40.446789999944144],[-79.87202700030005,40.44680000002176],[-79.87197700007134,40.44682900010178],[-79.87186999994121,40.446898999889775],[-79.87140799998386,40.447206000003355],[-79.87125399999807,40.44730899982081],[-79.8711019996621,40.44740899975804],[-79.87064800010067,40.44771100030606],[-79.87049699958962,40.44781199977449],[-79.87036400041853,40.44790100029036],[-79.87024399986963,40.44798299980102],[-79.87009599973163,40.44811799969457],[-79.87000100019537,40.44821399998556],[-79.86988900004238,40.44832899971922],[-79.8698549997072,40.44836299974546],[-79.8696999998965,40.44847000031899],[-79.86913099980902,40.44889399977306],[-79.86900100011268,40.44899199986283],[-79.8689890004171,40.449009999821946],[-79.86899400043998,40.44906100002164],[-79.86888899995967,40.44906800011309],[-79.86883299988318,40.449069000223766],[-79.86835000000943,40.44907799985176],[-79.86818900035095,40.449082000293735],[-79.86803000034229,40.449084999941434],[-79.8675530003163,40.44909300014064],[-79.86739500013256,40.44909699989811],[-79.86743699996535,40.44916900027669],[-79.8675030000876,40.449281000104634],[-79.86756099981392,40.44938900000607],[-79.86828100041245,40.44939800027488],[-79.86903999957242,40.44938900000607],[-79.86983299996588,40.44938900000607],[-79.87008800023402,40.44938799990021],[-79.87123700027963,40.44938799990021],[-79.87168099979532,40.44938699979428],[-79.87261300010597,40.44937499988938],[-79.872685000076,40.44936699972374],[-79.87315200005624,40.44941299980872],[-79.87394799992444,40.44948499984876],[-79.8741429999181,40.44950200025522],[-79.8742269995837,40.44951099982523],[-79.87449899957025,40.4495379998954],[-79.87648299984214,40.44974000002528],[-79.87657400007873,40.44974800014651],[-79.8771280000976,40.44980300018523],[-79.87769200016221,40.44985800017893],[-79.8779519995549,40.449884000011146],[-79.87795262024159,40.44988406552848],[-79.878169,40.449818],[-79.878289,40.449782],[-79.878437,40.449785],[-79.878881,40.449794],[-79.87890996283265,40.449820384988904],[-79.8790289996305,40.44979799968641],[-79.87902924014365,40.44979795498988],[-79.879029,40.449797],[-79.879255,40.449756],[-79.8793,40.449747],[-79.879435,40.449721],[-79.879481,40.449713],[-79.87950651374247,40.4497079602484],[-79.87956199973297,40.44969699978456],[-79.87971571385302,40.44966916703896],[-79.879805,40.449653],[-79.87988335479899,40.449638666805065],[-79.8798870003213,40.44963799993407],[-79.8799929997282,40.449617999938226],[-79.88013199964536,40.44959200000309],[-79.88017422324691,40.44958150382563],[-79.880309,40.449548],[-79.88035328523505,40.44953745589642],[-79.88041399967767,40.44952299970584],[-79.88045023459216,40.44951437271615],[-79.880477,40.449508],[-79.88047699987759,40.44950800030312],[-79.88047700032519,40.44950800019655],[-79.880588492682,40.44948067330684],[-79.880589,40.44948],[-79.88068094462739,40.449458013241276],[-79.88068099964137,40.44945799975729],[-79.88068106946018,40.449457985599715],[-79.880927,40.449407],[-79.881041,40.449385],[-79.881075,40.449378],[-79.881181,40.449358],[-79.881216,40.449352],[-79.881299,40.449338],[-79.88136025362724,40.44932808611813],[-79.88147200038502,40.44930999979774],[-79.8815271300394,40.44931800274765],[-79.881534,40.449319],[-79.88153400007546,40.449319000043126],[-79.88153400030929,40.44931900007707],[-79.88153655850103,40.449320462000586],[-79.881548,40.449327],[-79.881592,40.449352],[-79.881614,40.449379],[-79.881728,40.44934],[-79.88207,40.449226],[-79.88214633782393,40.44920143913491],[-79.88218500041255,40.44918899972254],[-79.8822880003447,40.44918299975268],[-79.88253668972798,40.44917016440114],[-79.882598,40.449167],[-79.8826791,40.4491548],[-79.8827371,40.4491505],[-79.8828437,40.4491363],[-79.8829401,40.4491133],[-79.8831084,40.4490809],[-79.8831564,40.4490717],[-79.8832813,40.4490476],[-79.8834049,40.4490238],[-79.88351799634867,40.4490090004778],[-79.88351799968285,40.449008999710394],[-79.88356799991158,40.44899899996146],[-79.8836446258067,40.44898542365587],[-79.883901,40.44894],[-79.88395610218673,40.44893052931165],[-79.88402900004402,40.44891799975248],[-79.88403481352748,40.44894178261244],[-79.88404,40.448963],[-79.88405972058942,40.44903906513065],[-79.88407500007477,40.4490980000083],[-79.88407732592518,40.449106916046524],[-79.884087,40.449144],[-79.8841748,40.4491692],[-79.8841966,40.4491755],[-79.8845159,40.4492671],[-79.88458488060967,40.44928691659101],[-79.88466599990358,40.449139999839126],[-79.88482800028528,40.44884900013041],[-79.88493899971503,40.44865300007454],[-79.88502874107705,40.44849324115953],[-79.88503,40.448491],[-79.885074,40.448412],[-79.885207,40.448178],[-79.88524113916108,40.44811882545411],[-79.8852519997095,40.44810000018016],[-79.88529699991534,40.44801999969754],[-79.8853220000297,40.4479769997235],[-79.88536800006045,40.447885999735426],[-79.88542199958881,40.44777599989338],[-79.88544325304478,40.44773501198507],[-79.885464,40.447695],[-79.88549485997686,40.447647135546106],[-79.88551299982541,40.44761899982558],[-79.88557999977256,40.4475190002008],[-79.88560502840012,40.44747495001579],[-79.885655,40.447387],[-79.8857,40.447309],[-79.88572372072967,40.447266302686586],[-79.885744999629,40.44722800030947],[-79.88578333540278,40.447161533582246],[-79.885884,40.446987],[-79.885901,40.446958],[-79.8859239,40.4469166],[-79.88592444896925,40.44691676135837],[-79.88592999957693,40.44690699966562],[-79.88597399995786,40.44682799995782],[-79.8861100004003,40.4465940000362],[-79.88615499970783,40.44651600010912],[-79.88619900008877,40.446436999941795],[-79.88633499963288,40.446200999719515],[-79.88638099966363,40.44612300001999],[-79.88647199990022,40.44596399987899],[-79.8867449997117,40.44548900026152],[-79.88683699977322,40.44533100015427],[-79.88693399985758,40.4451649996934],[-79.88695099957602,40.44513799991737],[-79.88713399987414,40.4448109998699],[-79.88715800016358,40.44475700002261],[-79.88717599970693,40.444645999668595],[-79.8871819995547,40.44461100031958]]]}}]}