{
"type": "FeatureCollection",
"name": "wilkinsburg_traced_boundary",
"crs": { "type": "name", "properties": { "name": "urn:ogc:def:crs:OGC:1.3:CRS84" } },
"features": [
{"type":"Feature","properties":{"name":"Wilkinsburg traced block outline"},"geometry":{"type":"MultiLineString","coordinates":[[[-79.891033,40.434127],[-79.890733,40.434258],[-79.890647,40.434291],[-79.89054,40.43434],[-79.890261,40.434454],[-79.890153,40.434503],[-79.88893,40.435026],[-79.887943,40.435205],[-79.888029,40.435417],[-79.887922,40.435483],[-79.887664,40.435548],[-79.88745,40.435695],[-79.887385,40.435711],[-79.8873,40.435728],[-79.887214,40.435679],[-79.887085,40.435352],[-79.88569,40.435597],[-79.885497,40.434683],[-79.885411,40.433817],[-79.885175,40.433866],[-79.88539,40.434699],[-79.885561,40.435646],[-79.885497,40.435646],[-79.885411,40.435662],[-79.885261,40.435679],[-79.885368,40.436218],[-79.885068,40.436234],[-79.884682,40.436022],[-79.884188,40.435891],[-79.88363,40.435858],[-79.882729,40.435956],[-79.882858,40.435728],[-79.882665,40.435613],[-79.882557,40.435695],[-79.882493,40.435662],[-79.882407,40.435744],[-79.882343,40.435695],[-79.882214,40.435826],[-79.881999,40.435679],[-79.881978,40.435679],[-79.881892,40.435613],[-79.884768,40.433164],[-79.884768,40.432984],[-79.884617,40.432984],[-79.884446,40.432935],[-79.881592,40.431939],[-79.881334,40.432118],[-79.879146,40.43398],[-79.879038,40.433915],[-79.878802,40.433833],[-79.878716,40.433801],[-79.876528,40.433049],[-79.876227,40.433294],[-79.876077,40.433507],[-79.87597,40.434225],[-79.875841,40.434421],[-79.875691,40.434519],[-79.875305,40.434617],[-79.875047,40.434585],[-79.874854,40.434519],[-79.874661,40.43434],[-79.874468,40.433866],[-79.874382,40.433409],[-79.874468,40.433],[-79.875305,40.431383],[-79.874425,40.431073],[-79.874661,40.430648],[-79.874811,40.430599],[-79.874961,40.430648],[-79.875047,40.430648],[-79.875154,40.430583],[-79.875476,40.430044],[-79.874983,40.430207],[-79.874167,40.43042],[-79.873953,40.430534],[-79.873781,40.430697],[-79.874082,40.430338],[-79.874296,40.430077],[-79.873266,40.430779],[-79.871893,40.431922],[-79.870541,40.432919],[-79.870412,40.43287],[-79.86979,40.432608],[-79.869125,40.432331],[-79.868846,40.432216],[-79.869425,40.432004],[-79.870069,40.43189],[-79.870648,40.431922],[-79.87112,40.432053],[-79.871206,40.432037],[-79.871571,40.431743],[-79.870455,40.42993],[-79.87052,40.429897],[-79.870799,40.429489],[-79.871013,40.429048],[-79.871142,40.428656],[-79.871206,40.428329],[-79.871035,40.427578],[-79.871163,40.427545],[-79.872344,40.426908],[-79.872043,40.426647],[-79.8717,40.426434],[-79.869726,40.425732],[-79.869297,40.425519],[-79.868932,40.425225],[-79.868803,40.425062],[-79.868696,40.424915],[-79.868567,40.424588],[-79.86773,40.425193],[-79.868975,40.426058],[-79.869597,40.426532],[-79.870005,40.426892],[-79.870327,40.427267],[-79.870563,40.427725],[-79.870605,40.427937],[-79.870605,40.428198],[-79.87052,40.428639],[-79.870327,40.429064],[-79.870026,40.429587],[-79.869854,40.429685],[-79.867129,40.430632],[-79.866786,40.430746],[-79.866614,40.430763],[-79.865992,40.430305],[-79.865756,40.429946],[-79.865735,40.429603],[-79.865863,40.429211],[-79.865863,40.429031],[-79.865692,40.428672],[-79.865263,40.428182],[-79.865177,40.42797],[-79.86522,40.427774],[-79.865391,40.427627],[-79.864447,40.427202],[-79.86434,40.427202],[-79.864297,40.427235],[-79.864254,40.427365],[-79.864469,40.428656],[-79.864469,40.429031],[-79.864318,40.429244],[-79.863911,40.429472],[-79.86376,40.429489],[-79.863589,40.429521],[-79.86376,40.430436],[-79.863975,40.431122],[-79.864361,40.431792],[-79.864941,40.432412],[-79.864619,40.432396],[-79.864619,40.432559],[-79.864812,40.432543],[-79.864962,40.432608],[-79.865026,40.432674],[-79.865069,40.432919],[-79.865177,40.432984],[-79.865327,40.433147],[-79.864597,40.434127],[-79.863868,40.435075],[-79.863074,40.433817],[-79.862902,40.433474],[-79.862816,40.433523],[-79.862237,40.433686],[-79.86258,40.434274],[-79.862602,40.434487],[-79.862494,40.434617],[-79.862366,40.434666],[-79.862022,40.434732],[-79.861958,40.434797],[-79.861894,40.435091],[-79.86213,40.435107],[-79.862452,40.43527],[-79.862537,40.435352],[-79.862559,40.435499],[-79.862366,40.436071],[-79.862001,40.43692],[-79.861894,40.437067],[-79.861593,40.437247],[-79.8614,40.437296],[-79.861164,40.437312],[-79.860756,40.437198],[-79.860456,40.436969],[-79.859641,40.436218],[-79.859512,40.436136],[-79.859147,40.435809],[-79.858975,40.435548],[-79.858954,40.435368],[-79.859319,40.434209],[-79.859619,40.433539],[-79.86037,40.432576],[-79.86052,40.432314],[-79.860499,40.432151],[-79.860413,40.432037],[-79.86022,40.431939],[-79.860091,40.431922],[-79.859941,40.431939],[-79.859834,40.431988],[-79.859254,40.432576],[-79.858611,40.433311],[-79.858546,40.433605],[-79.858353,40.434013],[-79.858181,40.434242],[-79.857624,40.434764],[-79.857452,40.434895],[-79.857366,40.434879],[-79.856186,40.433833],[-79.856079,40.433784],[-79.853461,40.435744],[-79.852002,40.436887],[-79.857366,40.441852],[-79.857409,40.441901],[-79.857452,40.441934],[-79.855692,40.443126],[-79.854662,40.443746],[-79.853933,40.444138],[-79.852903,40.444563],[-79.851658,40.444939],[-79.850349,40.4452],[-79.848375,40.445428],[-79.848418,40.445951],[-79.848375,40.446408],[-79.848397,40.446653],[-79.848676,40.446947],[-79.849212,40.447388],[-79.849341,40.447568],[-79.849362,40.447829],[-79.850028,40.44729],[-79.850392,40.447649],[-79.850607,40.448041],[-79.851336,40.447992],[-79.85301,40.447976],[-79.853418,40.448041],[-79.853517248744893,40.448116429111103],[-79.853574926982361,40.448185856589056],[-79.85359,40.448253],[-79.853590984674454,40.448253000002182],[-79.853611,40.449249],[-79.853611,40.449527],[-79.853654,40.44987],[-79.853654,40.450131],[-79.853675,40.450931],[-79.853675,40.451193],[-79.853697,40.45147],[-79.853697,40.452303],[-79.853718,40.452646],[-79.853718,40.453103],[-79.85374,40.453234],[-79.852302,40.453266],[-79.851894,40.453217],[-79.851272,40.453087],[-79.851079,40.453021],[-79.850864,40.452907],[-79.848247,40.451013],[-79.848053,40.450964],[-79.84786,40.451029],[-79.847796,40.451111],[-79.847796,40.451225],[-79.848161,40.452025],[-79.848225,40.453315],[-79.848912,40.453838],[-79.849384,40.454589],[-79.849534,40.454768],[-79.849641,40.454475],[-79.849706,40.454393],[-79.849834,40.454311],[-79.850371,40.454115],[-79.850607,40.454099],[-79.850864,40.454148],[-79.850972,40.454181],[-79.851272,40.454377],[-79.851379,40.454605],[-79.851444,40.45712],[-79.851787,40.457822],[-79.85183,40.458001],[-79.853525,40.458311],[-79.854126,40.458377],[-79.854727,40.458344],[-79.855564,40.458164],[-79.855671,40.458181],[-79.855692,40.458279],[-79.856014,40.461691],[-79.856079,40.462687],[-79.8561,40.462752],[-79.856379,40.463046],[-79.856701,40.462801],[-79.857302,40.462491],[-79.858482,40.462246],[-79.858353,40.460842],[-79.85904,40.460924],[-79.860177,40.460891],[-79.86022,40.461789],[-79.860241,40.461854],[-79.861808,40.461446],[-79.862516,40.461397],[-79.862859,40.461397],[-79.863052,40.461413],[-79.864233,40.461446],[-79.864748,40.461397],[-79.865713,40.461217],[-79.866335,40.461071],[-79.8664,40.460907],[-79.8664,40.460271],[-79.866271,40.459813],[-79.866035,40.459422],[-79.868202,40.459079],[-79.870863,40.45872],[-79.871163,40.458752],[-79.871249,40.458458],[-79.871507,40.45792],[-79.871528,40.457773],[-79.871464,40.457136],[-79.871485,40.456989],[-79.871378,40.456695],[-79.870949,40.456091],[-79.870906,40.455895],[-79.870884,40.455732],[-79.87097,40.455373],[-79.871142,40.455095],[-79.869876,40.454393],[-79.869618,40.454262],[-79.869361,40.454181],[-79.869103,40.454164],[-79.868159,40.454213],[-79.867687,40.454197],[-79.867129,40.454017],[-79.866979,40.453919],[-79.866722,40.453674],[-79.866722,40.45343],[-79.866872,40.453168],[-79.866872,40.453005],[-79.866636,40.452678],[-79.867194,40.452417],[-79.867752,40.452074],[-79.868031,40.45178],[-79.868159,40.451601],[-79.868288,40.451144],[-79.868803,40.451111],[-79.868739,40.450605],[-79.868288,40.449396],[-79.869039,40.44938],[-79.870927,40.44938],[-79.871099,40.449707],[-79.872301,40.450882],[-79.87258,40.451029],[-79.872987,40.451078],[-79.873223,40.452156],[-79.873374,40.452417],[-79.873438,40.45245],[-79.873631,40.452499],[-79.874082,40.449984],[-79.874532,40.450131],[-79.874618,40.450197],[-79.874833,40.450556],[-79.874854,40.450882],[-79.874554,40.45116],[-79.874532,40.451568],[-79.876206,40.451584],[-79.876335,40.451519],[-79.876592,40.451291],[-79.877129,40.451291],[-79.87715,40.451862],[-79.877708,40.452319],[-79.877687,40.451307],[-79.878566,40.451291],[-79.878545,40.451242],[-79.878523,40.450997],[-79.878588,40.450997],[-79.878824,40.450948],[-79.878888,40.450931],[-79.87936,40.45085],[-79.879811,40.450768],[-79.880819,40.450588],[-79.881377,40.45049],[-79.881485,40.450458],[-79.881828,40.450409],[-79.881935,40.450376],[-79.881978,40.450409],[-79.882708,40.450278],[-79.882665,40.450197],[-79.882922,40.450148],[-79.883201,40.450115],[-79.883587,40.450033],[-79.883695,40.450017],[-79.884274,40.449919],[-79.88421,40.449625],[-79.885561,40.450082],[-79.885883,40.45018],[-79.886098,40.449805],[-79.886248,40.449837],[-79.886463,40.449919],[-79.886827,40.450033],[-79.887106,40.449527],[-79.887278,40.449233],[-79.887364,40.449086],[-79.887643,40.448613],[-79.887729,40.448449],[-79.887836,40.448498],[-79.888222,40.448613],[-79.88833,40.448645],[-79.88833,40.448727],[-79.887879,40.449445],[-79.889832,40.450082],[-79.890668,40.450458],[-79.890969,40.450082],[-79.892514,40.45067],[-79.892578,40.450588],[-79.8926,40.450556],[-79.892879,40.450164],[-79.892943,40.450099],[-79.893887,40.448874],[-79.894348807908969,40.448253000065513],[-79.894359,40.448253],[-79.894531,40.448008],[-79.894981,40.447421],[-79.895153,40.447127],[-79.894917,40.447061],[-79.894595,40.446947],[-79.894281114442776,40.44684367182758],[-79.894209,40.446816],[-79.893951,40.446735],[-79.894037,40.446555],[-79.894273,40.445984],[-79.894295,40.445918],[-79.894295,40.445917661670521],[-79.894338,40.445788],[-79.894402,40.445641],[-79.894395365863147,40.445641000014533],[-79.894402,40.445624],[-79.894617,40.445118],[-79.894681,40.444939],[-79.89496,40.444236],[-79.894831,40.444204],[-79.894402,40.444057],[-79.894552,40.443681],[-79.894295,40.443595209112587],[-79.894295,40.443583],[-79.893866,40.443452],[-79.893844,40.443436],[-79.89393,40.443061],[-79.893994,40.443093],[-79.894151819887142,40.443135994244386],[-79.894702,40.443322],[-79.894724,40.44324],[-79.894831,40.442963],[-79.894853,40.442881],[-79.89496,40.442669],[-79.894981,40.442603],[-79.895024,40.442522],[-79.895089,40.442309],[-79.895132,40.442228],[-79.895153,40.442162],[-79.895239,40.44195],[-79.89526,40.441885],[-79.895411,40.441493],[-79.895539,40.441476],[-79.895453,40.441444],[-79.895089,40.441362],[-79.895689,40.439827],[-79.89584,40.439762],[-79.894917,40.439811],[-79.894681,40.439827],[-79.894788,40.439419],[-79.894831,40.439206],[-79.894917,40.438847],[-79.895024,40.438815],[-79.895346,40.438733],[-79.895453,40.4387],[-79.89599,40.43857],[-79.895904,40.438357],[-79.895539,40.437541],[-79.895496,40.437459],[-79.895411,40.437214],[-79.895368243488321,40.437132464327149],[-79.895883,40.437002],[-79.895775,40.436789],[-79.895432,40.435973],[-79.895539,40.43594],[-79.895861,40.435858],[-79.895968,40.435826],[-79.897041,40.435548],[-79.896805,40.434993],[-79.896312,40.435107],[-79.896247,40.435058],[-79.896162,40.434813],[-79.895732,40.434225],[-79.895797,40.433866],[-79.895539,40.43398],[-79.894574,40.432641],[-79.894166,40.432804],[-79.894059,40.432837],[-79.893973,40.432886],[-79.893651,40.433017],[-79.893565,40.433049],[-79.893458,40.433098],[-79.893179,40.433229],[-79.893072,40.433262],[-79.892879,40.433343],[-79.892578,40.433474],[-79.892299,40.433588],[-79.892085,40.433686],[-79.891119,40.434095],[-79.891033,40.434127]],[[-79.886634,40.43968],[-79.886398,40.43968],[-79.886527,40.43968],[-79.886634,40.43968]],[[-79.886398,40.43968],[-79.885883,40.43968],[-79.88627,40.43968],[-79.886398,40.43968]],[[-79.889982,40.444563],[-79.890025,40.444481],[-79.890068,40.4444],[-79.889982,40.444563]],[[-79.874125,40.442995],[-79.874296,40.443061],[-79.87421,40.443028],[-79.874125,40.442995]],[[-79.875069,40.442375],[-79.874747,40.442277],[-79.875176,40.442407],[-79.875069,40.442375]],[[-79.869919,40.440807],[-79.870176,40.44066],[-79.870605,40.440415],[-79.869919,40.440807]],[[-79.875541,40.439517],[-79.874747,40.439517],[-79.874876,40.439517],[-79.875541,40.439517]],[[-79.88996,40.435466],[-79.889746,40.435548],[-79.889574,40.435613],[-79.88996,40.435466]],[[-79.883587,40.444628],[-79.883502,40.444792],[-79.883544,40.44471],[-79.883587,40.444628]],[[-79.877193,40.444008],[-79.876978,40.443926],[-79.877021,40.443942],[-79.877193,40.444008]],[[-79.881806,40.440431],[-79.881892,40.440268],[-79.881849,40.44035],[-79.881806,40.440431]],[[-79.883051,40.440758],[-79.883094,40.440676],[-79.883008,40.44084],[-79.883051,40.440758]],[[-79.878262311863836,40.449298000061198],[-79.877687,40.449298],[-79.878244,40.449298],[-79.878262311863836,40.449298000061198]],[[-79.880476,40.449511],[-79.880412,40.449527],[-79.880669,40.449462],[-79.880476,40.449511]],[[-79.879618,40.448302],[-79.879553,40.448319],[-79.879425,40.448351],[-79.879618,40.448302]],[[-79.88569,40.447306],[-79.885733,40.447225],[-79.885647,40.447388],[-79.88569,40.447306]],[[-79.88481,40.445967],[-79.884768,40.446049],[-79.884596,40.446376],[-79.88481,40.445967]],[[-79.877579,40.447339],[-79.877794,40.447421],[-79.877665,40.447372],[-79.877579,40.447339]],[[-79.878223,40.447568],[-79.878116,40.447535],[-79.87833,40.4476],[-79.878223,40.447568]],[[-79.862001,40.458181],[-79.861400222159574,40.458181000334505],[-79.861851,40.458181],[-79.862001,40.458181]],[[-79.855027,40.453103],[-79.854727,40.453201],[-79.854877,40.453152],[-79.855027,40.453103]],[[-79.852517,40.454801],[-79.852624,40.454605],[-79.852796,40.454426],[-79.852946,40.454328],[-79.85316,40.454262],[-79.854362,40.454017],[-79.854641,40.45405],[-79.854834,40.454164],[-79.854898,40.45423],[-79.854941,40.454344],[-79.85492,40.455193],[-79.854813,40.455422],[-79.854577,40.455601],[-79.85419,40.455699],[-79.854126,40.455732],[-79.853997,40.455879],[-79.853976,40.456058],[-79.854062,40.456238],[-79.854062,40.456336],[-79.854319,40.456336],[-79.853632,40.456336],[-79.853375,40.456271],[-79.853139,40.456156],[-79.852924,40.45596],[-79.852452,40.455111],[-79.852431,40.454997],[-79.852517,40.454801]],[[-79.862602,40.448743],[-79.862988,40.448841],[-79.862666,40.44876],[-79.862602,40.448743]],[[-79.861121,40.451274],[-79.86155,40.451405],[-79.861014,40.451242],[-79.861121,40.451274]],[[-79.867859,40.456124],[-79.867795,40.456026],[-79.867773,40.455895],[-79.867902,40.455487],[-79.867988,40.455356],[-79.868159,40.455193],[-79.868567,40.454997],[-79.86891,40.455046],[-79.869103,40.455111],[-79.869232,40.455209],[-79.869339,40.455356],[-79.869382,40.455568],[-79.869361,40.455748],[-79.869232,40.456156],[-79.869146,40.456271],[-79.869039,40.45632],[-79.86891,40.456336],[-79.867859,40.456124]],[[-79.861078,40.458164],[-79.860864,40.458164],[-79.861035,40.458164],[-79.861078,40.458164]],[[-79.881291,40.449331],[-79.881034,40.44938],[-79.881206,40.449347],[-79.881291,40.449331]],[[-79.893372,40.441232],[-79.894273,40.441232],[-79.893157,40.441232],[-79.893372,40.441232]],[[-79.892406,40.448384],[-79.892278,40.448286],[-79.892342,40.448335],[-79.892406,40.448384]]]}}
]
}
