{
"type": "FeatureCollection",
"name": "wilkinsburg_borough_boundary",
"crs": { "type": "name", "properties": { "name": "urn:ogc:def:crs:OGC:1.3:CRS84" } },
"features": [
{"type":"Feature","properties":{"name":"Wilkinsburg"},"geometry":{"type":"MultiLineString","coordinates":[[[-79.895732402801528,40.434225223190424],[-79.896161556243911,40.434813191665945],[-79.896247386932373,40.435058177013339],[-79.89631175994873,40.435107173975695],[-79.896805286407485,40.434992847674643],[-79.897041320800795,40.435548145030289],[-79.895968437194824,40.435825791988364],[-79.895861148834214,40.435858456260995],[-79.895539283752441,40.435940116873148],[-79.89543199539186,40.43597278109025],[-79.895775318145766,40.436789381360278],[-79.895882606506348,40.43700169580594],[-79.895303249359131,40.43714868233711],[-79.895367622375502,40.43713235051618],[-79.895410537719741,40.437214009581147],[-79.895496368408203,40.437458986180971],[-79.895539283752441,40.437540644849228],[-79.895904064178467,40.43835722607686],[-79.895989894866943,40.438569535571482],[-79.895453453063979,40.438700187234929],[-79.895346164703383,40.438732850111116],[-79.895024299621596,40.438814507232159],[-79.894917011260986,40.43884717005281],[-79.89483118057251,40.439206460032594],[-79.894788265228286,40.439418766845392],[-79.89468097686769,40.439827047293242],[-79.894917011260986,40.439810716122935],[-79.895839691162124,40.439761722588209],[-79.89568948745729,40.439827047293242],[-79.895088672637954,40.441362159588436],[-79.895453453063979,40.44144381351586],[-79.895539283752441,40.441476475059062],[-79.895410537719741,40.441492805824701],[-79.895260334014893,40.441884743010093],[-79.895238876342773,40.441950065652165],[-79.895153045654297,40.442162363800477],[-79.895131587982192,40.442227686172771],[-79.895088672637954,40.442309339048869],[-79.895024299621596,40.442521636062544],[-79.894981384277344,40.442603288581594],[-79.894959926605225,40.442668610525416],[-79.894852638244629,40.442880906404454],[-79.89483118057251,40.442962558487089],[-79.894723892211928,40.443240174826173],[-79.894702434539809,40.443321826472413],[-79.893929958343506,40.443060540855335],[-79.893844127655044,40.443436138610515],[-79.893865585327148,40.443452468900098],[-79.894552230834961,40.443681092537574],[-79.894402027130141,40.444056686825327],[-79.89483118057251,40.444203657931851],[-79.894959926605225,40.444236318134095],[-79.89468097686769,40.444938508644157],[-79.894616603851318,40.445118137596346],[-79.894402027130141,40.445624362060656],[-79.894337654113784,40.445787659461644],[-79.894273281097412,40.445983615819138],[-79.894037246704116,40.446555151931996],[-79.893951416015625,40.446734776563723],[-79.894595146179199,40.44694705960049],[-79.894917011260986,40.44706136557334],[-79.895153045654297,40.447126683184827],[-79.894981384277344,40.447420611650976],[-79.894530773162842,40.448008464726975],[-79.893887042999268,40.448873905731716],[-79.892942905426025,40.450098567355148],[-79.892878532409668,40.450163882014863],[-79.892599582672119,40.450555768640164],[-79.892578125,40.450588425755782],[-79.892578125,40.450539440076405],[-79.892578125,40.449576047792085],[-79.892578125,40.448449351159688],[-79.892578125,40.448024793905688],[-79.892578125,40.44694705960049],[-79.892578125,40.44627754928419],[-79.892578125,40.445314095905772],[-79.892578125,40.444905848783094],[-79.892578125,40.444399618907319],[-79.892578125,40.443452468900098],[-79.892578125,40.442276677910328],[-79.892578125,40.441247843923421],[-79.892578125,40.440545614859218],[-79.892578125,40.438798175815883],[-79.892578125,40.437834615233719],[-79.892578125,40.437393659174973],[-79.892578125,40.436691389851539],[-79.892578125,40.436119769870793],[-79.892578125,40.435205167793313],[-79.892578125,40.434372215791313],[-79.892578125,40.434339550796651],[-79.892578125,40.433473922656404],[-79.892878532409668,40.433343260837077],[-79.89307165145874,40.433261597071066],[-79.89317893981935,40.433228931536895],[-79.893457889556885,40.433098269241512],[-79.89356517791748,40.433049270815296],[-79.893651008605971,40.433016605177968],[-79.893972873687758,40.432885942470023],[-79.894058704376235,40.432836943889072],[-79.894165992736831,40.432804278148616],[-79.89457368850708,40.432640949208285],[-79.895539283752441,40.433980234808203],[-79.895796775817885,40.433865906591038],[-79.895732402801528,40.434225223190424]],[[-79.895217418670654,40.436805713264519],[-79.895174503326416,40.436675057919537],[-79.895195960998535,40.436740385623764],[-79.895217418670654,40.436805713264519]],[[-79.892578124999986,40.437834615233726],[-79.892578124999986,40.438798175815883],[-79.892578124999986,40.440545614859218],[-79.892578124999986,40.441247843923421],[-79.892578124999986,40.442276677910328],[-79.892578124999986,40.443452468900098],[-79.892578124999986,40.444399618907319],[-79.892578124999986,40.444905848783094],[-79.892578124999986,40.445314095905772],[-79.892578124999986,40.44627754928419],[-79.892578124999986,40.44694705960049],[-79.892578124999986,40.448024793905688],[-79.892578124999986,40.448449351159688],[-79.892578124999986,40.449576047792085],[-79.892578124999986,40.450539440076405],[-79.892578124999986,40.450588425755782],[-79.892513751983643,40.450670068475404],[-79.890968799591064,40.450082238680295],[-79.890668392181382,40.450457797198077],[-79.88983154296875,40.450082238680295],[-79.887878894805894,40.449445417266524],[-79.888329505920396,40.448726944837219],[-79.888329505920396,40.448645299756969],[-79.8882222175598,40.448612641697096],[-79.88783597946167,40.448498338362569],[-79.88772869110106,40.448449351159688],[-79.887642860412583,40.448612641697096],[-79.887363910675035,40.449086182011989],[-79.887278079986572,40.449233142120931],[-79.887106418609619,40.449527061374745],[-79.886827468872056,40.450033252631933],[-79.886462688446045,40.449918951713578],[-79.886248111724854,40.449837308081449],[-79.88609790802002,40.449804650600818],[-79.885883331298814,40.450180210669878],[-79.885561466217027,40.450082238680295],[-79.884209632873535,40.449625034173707],[-79.884274005889893,40.449918951713578],[-79.883694648742662,40.45001692394122],[-79.88358736038208,40.450033252631933],[-79.883201122283936,40.450114896026022],[-79.882922172546387,40.45014755335589],[-79.882664680480943,40.45019653932092],[-79.882707595825181,40.450278182516648],[-79.88197803497313,40.450408811423479],[-79.881935119628892,40.450376154220578],[-79.881827831268311,40.450408811423479],[-79.881484508514404,40.450457797198077],[-79.881377220153809,40.450490454361308],[-79.880819320678711,40.450588425755782],[-79.879810810089111,40.450768039608022],[-79.879360198974609,40.450849682109414],[-79.878888130187974,40.450931324511643],[-79.878823757171617,40.45094765298019],[-79.878587722778306,40.450996638362007],[-79.878523349761949,40.450996638362007],[-79.878544807434068,40.451241564735511],[-79.878566265106187,40.451290549903085],[-79.877686500549316,40.451306878284342],[-79.877707958221436,40.452319230173806],[-79.877150058746324,40.451862040886446],[-79.877128601074205,40.451290549903085],[-79.87659215927124,40.451290549903085],[-79.876334667205811,40.451519146879647],[-79.876205921173081,40.451584460158692],[-79.874532222747789,40.45156813184488],[-79.874553680419922,40.451159922710197],[-79.874854087829576,40.450882339082213],[-79.874832630157456,40.450555768640164],[-79.874618053436265,40.45019653932092],[-79.874532222747789,40.450131224692946],[-79.874081611633301,40.449984266547879],[-79.873631000518785,40.452498839399944],[-79.873437881469727,40.452449855113152],[-79.873373508453369,40.452417198902126],[-79.873223304748521,40.452155948642535],[-79.87298727035521,40.451078280585698],[-79.872579574584947,40.451029295263389],[-79.872300624847398,40.450882339082213],[-79.87109899520874,40.44970667806372],[-79.870927333831773,40.449380101908531],[-79.869039058685289,40.449380101908531],[-79.868288040161133,40.449396430753978],[-79.868738651275621,40.450604754307641],[-79.868803024291992,40.451110937447396],[-79.868288040161133,40.451143594293235],[-79.868159294128418,40.451600788468539],[-79.868030548095689,40.451780399614954],[-79.86775159835814,40.452074307728125],[-79.867193698883057,40.452417198902126],[-79.866635799407945,40.452678448146031],[-79.86687183380127,40.453005008272605],[-79.86687183380127,40.453168287740766],[-79.866721630096421,40.453429534064583],[-79.866721630096421,40.453674451570699],[-79.866979122161851,40.453919368184131],[-79.867129325866699,40.454017334579547],[-79.867687225341783,40.454196939266843],[-79.868159294128418,40.454213266941892],[-79.869103431701646,40.454164283904859],[-79.86936092376709,40.45418061158783],[-79.869618415832505,40.454262249943206],[-79.869875907897949,40.454392871105469],[-79.871141910552964,40.455094955502233],[-79.870970249176011,40.455372521728655],[-79.870884418487535,40.45573172337842],[-79.870905876159654,40.455894996220771],[-79.870948791503892,40.456090923107865],[-79.871377944946289,40.456695027413133],[-79.871485233306871,40.456988914030113],[-79.871463775634766,40.457135856856539],[-79.871528148651109,40.457772605390694],[-79.87150669097899,40.457919546503099],[-79.87124919891356,40.458458327832389],[-79.871163368225083,40.458752206736307],[-79.87086296081543,40.458719553588246],[-79.868202209472656,40.459078737344065],[-79.866034984588609,40.459421592774142],[-79.866271018981919,40.459813425408832],[-79.866399765014634,40.460270560594161],[-79.866399765014634,40.460907279418535],[-79.866335391998277,40.461070539683469],[-79.865713119506822,40.461217473582664],[-79.864747524261475,40.461397059023028],[-79.864232540130601,40.461446036787081],[-79.863052368164062,40.461413384948344],[-79.862859249114976,40.461397059023028],[-79.86251592636107,40.461397059023028],[-79.861807823181138,40.461446036787081],[-79.860241413116455,40.461854183432102],[-79.860219955444336,40.461788880135543],[-79.860177040100098,40.460890953370217],[-79.859039783477769,40.460923605462881],[-79.858353137969971,40.460841975201468],[-79.858481884002686,40.462246001878327],[-79.857301712036133,40.462490887246659],[-79.856700897216797,40.462801074098287],[-79.85637903213501,40.463045957443072],[-79.856100082397461,40.462752097322209],[-79.856078624725342,40.462686794898538],[-79.856014251708984,40.461690925071679],[-79.855692386627197,40.458278734536044],[-79.855670928955078,40.458180774353863],[-79.855563640594468,40.45816444764295],[-79.854726791381822,40.458344041244807],[-79.854125976562486,40.458376694575392],[-79.85352516174315,40.458311387898362],[-79.851830005645738,40.458001180315577],[-79.851787090301514,40.457821585797205],[-79.851443767547607,40.457119529891692],[-79.85137939453125,40.454605129952583],[-79.85127210617064,40.454376543474069],[-79.850971698760972,40.45418061158783],[-79.850864410400391,40.454147956217923],[-79.850606918334947,40.454098973133291],[-79.85037088394165,40.454115300832136],[-79.849834442138658,40.454311232908807],[-79.849705696105957,40.454392871105469],[-79.849641323089585,40.454474509202939],[-79.84953403472899,40.454768405532555],[-79.84938383102417,40.454588802372761],[-79.848911762237535,40.453837729412179],[-79.848225116729722,40.453315238922883],[-79.848160743713379,40.452025323131863],[-79.847795963287339,40.451225236338381],[-79.847795963287339,40.451110937447396],[-79.847860336303697,40.451029295263389],[-79.848053455352783,40.450963981444758],[-79.848246574401841,40.451012966814687],[-79.850864410400391,40.452907040401271],[-79.851078987121582,40.453021336237278],[-79.85127210617064,40.453086648056278],[-79.851894378662109,40.453217271503846],[-79.852302074432359,40.453266255231213],[-79.853739738464341,40.453233599416933],[-79.853718280792222,40.453102976001105],[-79.853718280792222,40.452645792046084],[-79.853696823120103,40.452302902038518],[-79.853696823120103,40.45147016187871],[-79.853675365447984,40.451192579532226],[-79.853675365447984,40.450931324511643],[-79.853653907775879,40.450131224692946],[-79.853653907775879,40.449869965546199],[-79.853610992431641,40.449527061374745],[-79.853610992431641,40.449249471002091],[-79.853589534759521,40.448204414609691],[-79.853482246398912,40.448073781418017],[-79.853417873382568,40.448041123080436],[-79.85301017761229,40.44797580635764],[-79.851336479186998,40.44799213554429],[-79.850606918334947,40.448041123080436],[-79.85039234161377,40.447649221791508],[-79.850027561187744,40.447289976935828],[-79.849362373352051,40.447828843499266],[-79.849340915679932,40.447567575402019],[-79.849212169647203,40.447387952995996],[-79.848675727844238,40.44694705960049],[-79.848396778106689,40.44665312906335],[-79.84837532043457,40.446408185967165],[-79.848418235778809,40.445950956465893],[-79.84837532043457,40.445428404655772],[-79.850349426269531,40.445199786961361],[-79.851658344268785,40.444938508644157],[-79.852902889251709,40.444562919283818],[-79.853932857513428,40.444138337479728],[-79.854662418365479,40.44374641343402],[-79.855692386627197,40.443125862354819],[-79.857451915740967,40.44193373499759],[-79.857409000396714,40.441901073676561],[-79.85736608505249,40.441852081665253],[-79.852001667022691,40.436887372726204],[-79.853460788726792,40.43574413123735],[-79.856078624725342,40.433784243459755],[-79.856185913085923,40.433833241350428],[-79.85736608505249,40.434878521179193],[-79.857451915740967,40.43489485354759],[-79.857623577117906,40.434764194489361],[-79.858181476593018,40.434241555717506],[-79.858353137969971,40.434012899977404],[-79.858546257019043,40.43360458422184],[-79.858610630035386,40.433310595342583],[-79.85925436019896,40.432575617521074],[-79.859833717346191,40.431987629479885],[-79.859941005706787,40.431938630244382],[-79.860091209411607,40.431922297157946],[-79.860219955444336,40.431938630244382],[-79.860413074493394,40.432036628679683],[-79.860498905181885,40.432150960007043],[-79.860520362854004,40.432314290137498],[-79.860370159149156,40.432575617521074],[-79.859619140624986,40.433539253470862],[-79.859318733215318,40.434208890659377],[-79.858953952789292,40.435368490505297],[-79.858975410461412,40.435548145030289],[-79.859147071838379,40.435809459846091],[-79.859511852264404,40.436136101937677],[-79.859640598297105,40.436217762212635],[-79.860455989837632,40.436969032088705],[-79.8607563972473,40.437197677776091],[-79.861164093017564,40.437312000328198],[-79.861400127410874,40.43729566854693],[-79.861593246459961,40.437246673179374],[-79.861893653869629,40.437067023192796],[-79.86200094223021,40.436920036483116],[-79.86236572265625,40.436070773646314],[-79.862558841705322,40.435499148389262],[-79.862537384033203,40.435352158251952],[-79.862451553344712,40.43527049692571],[-79.862129688262925,40.435107173975695],[-79.861893653869629,40.435090841658869],[-79.861958026885986,40.434796859277718],[-79.862022399902344,40.434731529685124],[-79.86236572265625,40.434666200029064],[-79.862494468688951,40.434617202745372],[-79.862601757049561,40.434486543147621],[-79.862580299377441,40.434274220759754],[-79.862236976623535,40.433686247571302],[-79.862816333770738,40.4335229207732],[-79.862902164459229,40.433473922656404],[-79.863073825836182,40.433816908724161],[-79.863867759704576,40.435074509338079],[-79.864597320556641,40.43412722794465],[-79.865326881408677,40.433147267632037],[-79.865176677703857,40.432983939524782],[-79.865069389343262,40.432918608170809],[-79.865026473999009,40.432673615028079],[-79.864962100982652,40.432608283372609],[-79.864811897277832,40.432542951653666],[-79.86461877822876,40.432559284589352],[-79.86461877822876,40.432395955053963],[-79.864940643310547,40.432412288025347],[-79.864361286163316,40.431791632323645],[-79.863975048065171,40.431121971062964],[-79.863760471343994,40.430435969686258],[-79.863588809967041,40.429521290298503],[-79.863760471343994,40.429488622947417],[-79.863910675048828,40.429472289265945],[-79.864318370819078,40.429243617308551],[-79.864468574523926,40.429031278366203],[-79.864468574523926,40.428655600133553],[-79.864253997802734,40.427365211090674],[-79.864296913146958,40.427234537402029],[-79.864339828491197,40.427201868940209],[-79.864447116851807,40.427201868940209],[-79.865391254425035,40.427626557706297],[-79.865219593048081,40.427773564731311],[-79.865176677703857,40.427969573598155],[-79.865262508392334,40.428181915892601],[-79.865691661834703,40.428671934013401],[-79.86586332321167,40.429031278366203],[-79.86586332321167,40.429210949822597],[-79.865734577178941,40.429602958606779],[-79.865756034851074,40.429945964418522],[-79.865992069244371,40.430305301963962],[-79.866614341735826,40.430762637881244],[-79.866786003112793,40.430746304509192],[-79.867129325866699,40.430631970793677],[-79.86985445022583,40.42968462681587],[-79.870026111602783,40.429586624953053],[-79.870326519012451,40.42906394593944],[-79.870519638061523,40.428639266249753],[-79.870605468749986,40.42819824988748],[-79.870605468749986,40.427936905493347],[-79.870562553405748,40.427724562425347],[-79.870326519012451,40.427267205847997],[-79.870004653930664,40.426891517761419],[-79.869596958160386,40.426532161975835],[-79.868974685668945,40.42605846277948],[-79.867730140686021,40.425192728041893],[-79.868566989898667,40.424588340582453],[-79.868695735931382,40.424915037180845],[-79.868803024291992,40.425062050132439],[-79.868931770324693,40.425225397479586],[-79.869296550750732,40.42551942170477],[-79.869725704193101,40.425731771734753],[-79.871699810028076,40.426434155519274],[-79.872043132781982,40.426646502661328],[-79.872343540191636,40.426907852069689],[-79.871163368225083,40.427544886998014],[-79.871034622192383,40.427577555293233],[-79.871206283569322,40.428328921703709],[-79.871141910552964,40.428655600133553],[-79.871013164520264,40.429047612154804],[-79.870798587799058,40.429488622947417],[-79.870519638061523,40.429896963695377],[-79.870455265045152,40.429929630848108],[-79.871571063995347,40.43174263294533],[-79.871206283569322,40.432036628679683],[-79.871120452880845,40.43205296173835],[-79.870648384094224,40.431922297157946],[-79.870069026947021,40.431889630973167],[-79.869425296783433,40.432003962550453],[-79.86884593963623,40.43221629210683],[-79.869124889373765,40.432330623128721],[-79.869790077209458,40.432608283372609],[-79.870412349700928,40.432869609613675],[-79.870541095733628,40.432918608170809],[-79.871892929077134,40.431922297157946],[-79.873266220092759,40.430778971249346],[-79.874296188354478,40.430076632839025],[-79.874081611633301,40.430337968918337],[-79.873781204223633,40.430697304369197],[-79.873952865600572,40.43053397031138],[-79.874167442321763,40.430419636234852],[-79.87498283386229,40.430207301005623],[-79.875476360321031,40.430043965757697],[-79.875154495239244,40.43058297057037],[-79.875047206878648,40.430648304193504],[-79.874961376190171,40.430648304193504],[-79.874811172485352,40.430599303982106],[-79.874660968780503,40.430648304193504],[-79.874424934387207,40.431072971196706],[-79.875304698944078,40.431383303080047],[-79.874467849731445,40.433000272353361],[-79.874382019042955,40.433408591778473],[-79.874467849731445,40.433865906591038],[-79.874660968780503,40.434339550796651],[-79.874854087829576,40.43451920807086],[-79.875047206878648,40.434584537869725],[-79.875304698944078,40.434617202745372],[-79.875690937042222,40.43451920807086],[-79.875841140747056,40.434421213253529],[-79.875969886779785,40.434225223190424],[-79.876077175140367,40.433506588071566],[-79.876227378845201,40.433294262589371],[-79.876527786254869,40.433049270815296],[-79.878716468811035,40.433800576093944],[-79.878802299499483,40.433833241350428],[-79.879038333892822,40.433914904422188],[-79.87914562225339,40.433980234808203],[-79.881334304809556,40.43211829393335],[-79.881591796874986,40.431938630244382],[-79.884445667266831,40.432934941015262],[-79.884617328643799,40.432983939524782],[-79.884767532348619,40.432983939524782],[-79.884767532348619,40.43316360042094],[-79.881892204284668,40.435613473829449],[-79.88197803497313,40.435678802565135],[-79.881999492645249,40.435678802565135],[-79.882214069366455,40.435825791988364],[-79.882342815399156,40.435695134739149],[-79.882407188415513,40.43574413123735],[-79.88249301910399,40.435662470387172],[-79.882557392120361,40.435695134739149],[-79.882664680480943,40.435613473829449],[-79.882857799530029,40.435727799075252],[-79.8827290534973,40.435956448983688],[-79.883630275726318,40.435858456260995],[-79.884188175201402,40.435891120517752],[-79.884681701660142,40.436021777386124],[-79.885067939758301,40.436234094255724],[-79.885368347167955,40.436217762212635],[-79.885261058807373,40.435678802565135],[-79.885411262512207,40.435662470387172],[-79.885497093200669,40.435646138205229],[-79.885561466217027,40.435646138205229],[-79.885389804840088,40.434698864865034],[-79.885175228118882,40.433865906591038],[-79.885411262512207,40.433816908724161],[-79.885497093200669,40.434682532449038],[-79.885690212249742,40.435597141635604],[-79.8870849609375,40.435352158251952],[-79.887213706970201,40.435678802565135],[-79.887299537658691,40.435727799075252],[-79.887385368347154,40.435711466909183],[-79.887449741363525,40.435695134739149],[-79.887664318084703,40.435548145030289],[-79.887921810150132,40.435482816167649],[-79.888029098510728,40.435417487241537],[-79.887943267822266,40.435205167793313],[-79.888930320739732,40.43502551235192],[-79.890153408050537,40.434502875611223],[-79.890260696411133,40.434453878208501],[-79.890539646148682,40.434339550796651],[-79.890646934509277,40.434290553274934],[-79.89073276519774,40.434257888240609],[-79.891033172607408,40.43412722794465],[-79.891119003295884,40.434094562830985],[-79.892084598541246,40.433686247571302],[-79.892299175262437,40.433588251540051],[-79.892578124999986,40.433473922656404],[-79.892578124999986,40.434339550796651],[-79.892578124999986,40.434372215791313],[-79.892578124999986,40.435205167793313],[-79.892578124999986,40.436119769870793],[-79.892578124999986,40.436691389851539],[-79.892578124999986,40.437393659174973],[-79.892578124999986,40.437834615233726]],[[-79.857645034790039,40.442113371979602],[-79.858031272888184,40.442472644503518],[-79.857451915740967,40.44193373499759],[-79.857645034790039,40.442113371979602]],[[-79.887170791625962,40.436430078463353],[-79.887642860412583,40.436250426294841],[-79.88772869110106,40.436217762212635],[-79.887170791625962,40.436430078463353]],[[-79.892406463623033,40.448384034833637],[-79.892342090606689,40.448335047547445],[-79.892277717590318,40.448286060225549],[-79.892406463623033,40.448384034833637]],[[-79.885003566741943,40.439026815282723],[-79.885046482086182,40.438798175815883],[-79.885110855102525,40.438455215157688],[-79.885003566741943,40.439026815282723]],[[-79.881441593170152,40.436005445291464],[-79.881269931793199,40.436136101937677],[-79.881312847137437,40.436103437799929],[-79.881441593170152,40.436005445291464]],[[-79.881892204284668,40.440267987391934],[-79.881806373596177,40.440431297805652],[-79.88184928894043,40.440349642648385],[-79.881892204284668,40.440267987391934]],[[-79.869918823242173,40.440806910251659],[-79.870605468749986,40.440414966782136],[-79.870176315307617,40.440659931718372],[-79.869918823242173,40.440806910251659]],[[-79.877085685729966,40.442456313975903],[-79.876999855041504,40.442619619073497],[-79.877042770385742,40.442537966574292],[-79.877085685729966,40.442456313975903]],[[-79.862666130065904,40.448759602841548],[-79.862987995147691,40.448841247782923],[-79.862601757049561,40.448743273841366],[-79.862666130065904,40.448759602841548]],[[-79.868159294128418,40.455192920183663],[-79.867987632751451,40.455356194335309],[-79.867901802062988,40.45548681337096],[-79.867773056030259,40.455894996220771],[-79.867794513702393,40.456025614208976],[-79.86785888671875,40.456123577533504],[-79.868910312652574,40.456335830913304],[-79.869039058685289,40.456319503754045],[-79.869146347045898,40.456270522252474],[-79.869232177734361,40.456156231943268],[-79.86936092376709,40.455748050680498],[-79.869382381439195,40.455568450139317],[-79.869339466094971,40.455356194335309],[-79.869232177734361,40.455209247616686],[-79.869103431701646,40.455111282959052],[-79.868910312652574,40.455045973107957],[-79.868566989898667,40.454996990677969],[-79.868159294128418,40.455192920183663]],[[-79.854941368103027,40.454343888199382],[-79.854898452758775,40.454229594612954],[-79.854834079742417,40.454164283904859],[-79.854640960693359,40.45404999001294],[-79.854362010955811,40.454017334579547],[-79.853160381317124,40.454262249943206],[-79.852945804595947,40.454327560556081],[-79.852795600891099,40.45442552635636],[-79.852623939514146,40.454605129952583],[-79.85251665115355,40.454801060600943],[-79.852430820465088,40.454996990677969],[-79.852452278137193,40.455111282959052],[-79.852924346923828,40.45596030524662],[-79.853138923645005,40.456156231943268],[-79.853374958038316,40.456270522252474],[-79.85363245010376,40.456335830913304],[-79.854061603546128,40.456335830913304],[-79.854061603546128,40.45623786789826],[-79.853975772857666,40.456058268666361],[-79.853997230529785,40.455878668954391],[-79.854125976562486,40.45573172337842],[-79.854190349578843,40.455699068762335],[-79.854576587677002,40.455601104818868],[-79.854812622070298,40.455421503884892],[-79.854919910430908,40.455192920183663],[-79.854941368103027,40.454343888199382]]]}}
]
}
