{"type":"FeatureCollection","properties":{"generated_from":"assets/wilkinsburg_fluid_grid.geojson"},"features":[{"type":"Feature","properties":{"kind":"selectable_boundary","part":1,"source":"assets/wilkinsburg_fluid_grid.geojson"},"geometry":{"type":"Polygon","coordinates":[[[-79.8954447,40.4347457],[-79.89530254783342,40.43455369690185],[-79.8951862361051,40.43439659615042],[-79.8950663,40.4342346],[-79.8950283,40.4341832],[-79.8949966,40.4341395],[-79.89455617523208,40.43353285081058],[-79.894304,40.4331855],[-79.893806,40.433403],[-79.893762,40.433515],[-79.893631,40.433854],[-79.89360021052268,40.43393491188225],[-79.893588,40.433967],[-79.893483,40.434001],[-79.89336109614833,40.43404163461723],[-79.89325727329039,40.43407624223654],[-79.893171,40.434105],[-79.893068,40.434141],[-79.892969,40.43418],[-79.892673,40.434298],[-79.892575,40.434338],[-79.892474,40.434372],[-79.89217,40.434476],[-79.89207,40.434511],[-79.89197,40.43455],[-79.891671,40.434669],[-79.891572,40.43471],[-79.891474,40.434749],[-79.891181,40.434867],[-79.891084,40.434907],[-79.890982,40.434942],[-79.890676,40.435046],[-79.890575,40.435082],[-79.890317,40.435174],[-79.889546,40.435453],[-79.889289,40.435547],[-79.889147,40.435597],[-79.888951,40.435667],[-79.888724,40.435746],[-79.888583,40.435796],[-79.888381,40.435846],[-79.887774,40.435999],[-79.887573,40.43605],[-79.887231,40.436127],[-79.886204,40.436358],[-79.885863,40.436436],[-79.885832,40.43644],[-79.885739,40.436454],[-79.885709,40.43646],[-79.88570899957617,40.436459999958394],[-79.885546,40.436444],[-79.885381,40.436428],[-79.8844,40.436332],[-79.884073,40.436301],[-79.883804,40.436232],[-79.882997,40.436026],[-79.882728,40.435958],[-79.882669,40.435957],[-79.882494,40.435954],[-79.882436,40.435954],[-79.88236878752298,40.43591343030667],[-79.882325,40.435887],[-79.88232496719323,40.43588698017718],[-79.88211928045749,40.435762698161625],[-79.8820647669428,40.43572975948206],[-79.8819940075647,40.435687004570816],[-79.881994,40.435687],[-79.881977,40.435677],[-79.881887,40.435617],[-79.88181384433739,40.43556900988532],[-79.881762,40.435535],[-79.881719,40.435509],[-79.88152137487783,40.43539003742646],[-79.881209,40.435202],[-79.881039,40.4351],[-79.88097015111704,40.43505811692953],[-79.88092753901897,40.43503219456987],[-79.880919,40.435027],[-79.880559,40.434811],[-79.8805024551214,40.434776787972616],[-79.88044,40.434739],[-79.88038370145257,40.43470490369663],[-79.880369,40.434696],[-79.880272,40.434637],[-79.8797851090521,40.43434311960714],[-79.87977,40.434334],[-79.879603,40.434234],[-79.87956066940777,40.434208316269874],[-79.879514,40.43418],[-79.87935264390107,40.43408300999518],[-79.879331,40.43407],[-79.8792464578583,40.43402432780851],[-79.879244,40.434023],[-79.87924399990875,40.43402299995187],[-79.87924399904291,40.43402299949516],[-79.879153,40.433975],[-79.878666,40.434382],[-79.87741116526024,40.43543170101692],[-79.87733211509665,40.43549782847935],[-79.877204,40.435605],[-79.876982,40.435792],[-79.876725,40.435563],[-79.87603806867165,40.43535130864959],[-79.875758,40.435265],[-79.875739,40.435261],[-79.87495399000942,40.43509778010097],[-79.874931,40.435093],[-79.874398,40.43454],[-79.874097,40.4341294],[-79.8739571,40.4339501],[-79.8734185,40.4339461],[-79.87272281342955,40.43387844337792],[-79.872709,40.4338771],[-79.8722800157802,40.43382390264342],[-79.8722429,40.4338193],[-79.87226962655474,40.43376907099042],[-79.872698,40.432964],[-79.872595,40.432945],[-79.8725949997095,40.43294499973639],[-79.872541,40.432896],[-79.872388,40.432754],[-79.872391,40.432748],[-79.87243,40.432687],[-79.872409,40.432678],[-79.872346,40.432653],[-79.872325,40.432645],[-79.872134,40.432567],[-79.871564,40.432335],[-79.871374,40.432258],[-79.871258,40.432219],[-79.870912,40.432102],[-79.870797,40.432063],[-79.86975334107085,40.43193849625265],[-79.869548,40.431914],[-79.86760003939233,40.43168229016562],[-79.86735175479706,40.431652756723196],[-79.86657383243903,40.43156022289062],[-79.865891,40.431479],[-79.865833,40.431546],[-79.865253,40.432232],[-79.865132,40.432375],[-79.865028,40.432512],[-79.864857,40.432804],[-79.864347,40.433679],[-79.864178,40.433972],[-79.864114,40.434192],[-79.8640591,40.4343811],[-79.863922,40.434853],[-79.863859,40.435074],[-79.863675,40.435272],[-79.863125,40.435869],[-79.862942,40.436068],[-79.8626734,40.4363978],[-79.862587,40.436504],[-79.862034,40.437187],[-79.861405,40.437692],[-79.860967,40.438045],[-79.86093202082711,40.43807601767622],[-79.860552,40.438413],[-79.8608982,40.4383435],[-79.86118164251796,40.43828654922309],[-79.86149714371712,40.438223157045606],[-79.861806,40.4381611],[-79.861946,40.438133],[-79.86327,40.437935],[-79.862882,40.438197],[-79.864488298193,40.43758652009377],[-79.864737,40.437492],[-79.86460784336265,40.43756016852781],[-79.863316,40.438242],[-79.862202,40.43887],[-79.861993,40.438958],[-79.861574,40.439072],[-79.861323,40.439236],[-79.86165199955427,40.44166635154602],[-79.861664,40.441755],[-79.861507,40.441786],[-79.8615017733091,40.4417875076993],[-79.861455,40.441801],[-79.861226,40.44187],[-79.86106118227683,40.44191923126796],[-79.860841,40.441985],[-79.860792,40.442],[-79.86064,40.442055],[-79.86027456964288,40.44212282300615],[-79.859293,40.442305],[-79.85839478046837,40.44270469581761],[-79.8583096,40.4427426],[-79.8585872,40.4430161],[-79.85873510949288,40.4431619103407],[-79.85877516477699,40.44320139715461],[-79.8591368,40.4435579],[-79.8593053,40.443724],[-79.8595174,40.4439006],[-79.85973576957905,40.444082359612686],[-79.8599236,40.4442387],[-79.8600677,40.4443431],[-79.8602287,40.4444489],[-79.8604104,40.4445399],[-79.860681,40.4446552],[-79.86089384955997,40.444745893105186],[-79.86093436854462,40.44476315784624],[-79.8609516,40.4447705],[-79.86087217249381,40.44478127097377],[-79.86084975853566,40.44478431047692],[-79.8603624,40.4448504],[-79.8601624628175,40.44488446378973],[-79.85913727497267,40.44505912756532],[-79.85859045684981,40.445152290314354],[-79.8585904,40.4451523],[-79.8584914,40.445171],[-79.8583862,40.4451908],[-79.8583663,40.4451937],[-79.85787902104335,40.44526487407895],[-79.8576358,40.4453004],[-79.85740403902291,40.44533427240369],[-79.8571329,40.4453739],[-79.8564316,40.4454763],[-79.8560103,40.4455378],[-79.85568561881612,40.44558523733665],[-79.85550197901397,40.44561206791247],[-79.8553108,40.44564],[-79.85404422759846,40.445824951998496],[-79.8539672,40.4458362],[-79.85405792754138,40.44642484153126],[-79.854084,40.446594],[-79.854115,40.446786],[-79.854126,40.446852],[-79.854162,40.44705],[-79.854175,40.447117],[-79.85420794824188,40.44753434439719],[-79.854214,40.447611],[-79.85424029469132,40.447944066090095],[-79.85430466433141,40.44875941486444],[-79.854331,40.449093],[-79.854371,40.449587],[-79.854386,40.449745],[-79.85441058236748,40.44998775087889],[-79.85443074103338,40.45018681770464],[-79.854434,40.450219],[-79.85445,40.450377],[-79.854434,40.450555],[-79.854387,40.451091],[-79.85438056046537,40.451167845113176],[-79.854372,40.45127],[-79.854411,40.451569],[-79.85452315063536,40.45240919517666],[-79.854531,40.452468],[-79.85454290958756,40.45255732190675],[-79.854571,40.452768],[-79.854569,40.452859],[-79.854563,40.453132],[-79.854561,40.453223],[-79.85456874368363,40.45361300006591],[-79.854572,40.453777],[-79.854777,40.453779],[-79.855273,40.453787],[-79.855345,40.45557],[-79.855377,40.45633],[-79.855466,40.456593],[-79.855487,40.456826],[-79.85553074306938,40.45731352356362],[-79.85553724538768,40.457385992949874],[-79.855549,40.457517],[-79.856392,40.457492],[-79.856905,40.457477],[-79.856948,40.457602],[-79.857078,40.457979],[-79.857122,40.458105],[-79.857182,40.458278],[-79.857268,40.458526],[-79.8572964,40.4586488],[-79.857305,40.458686],[-79.857306,40.458713],[-79.8573013,40.4587583],[-79.857296,40.458809],[-79.857289,40.458884],[-79.857313,40.458924],[-79.857336,40.458944],[-79.857363,40.45896],[-79.857692,40.459465],[-79.857717,40.459463],[-79.859602,40.459384],[-79.859671,40.459382],[-79.859621986351,40.45929388355013],[-79.85940558992446,40.45890484732743],[-79.859399,40.458893],[-79.859541,40.458888],[-79.85996991493369,40.45887500257777],[-79.85997,40.458875],[-79.86008068016194,40.45887267803856],[-79.860113,40.458872],[-79.86017697539599,40.45886826602747],[-79.86037,40.458857],[-79.8607,40.458839],[-79.86099544753368,40.45858999405189],[-79.860999,40.458587],[-79.861048,40.45857],[-79.861294,40.458491],[-79.861529,40.458489],[-79.86158822980208,40.458488664895036],[-79.86186207568431,40.45848711555483],[-79.862236,40.458485],[-79.862472,40.458484],[-79.862765,40.458492],[-79.86341247160836,40.45851037320114],[-79.863646,40.458517],[-79.86394,40.458526],[-79.86422,40.458523],[-79.8649743335362,40.45851491785497],[-79.86501633501227,40.45851446783916],[-79.86506,40.458514],[-79.86534,40.458511],[-79.866104,40.458527],[-79.86652598048522,40.45853613377673],[-79.86702781219317,40.45854699593492],[-79.86702799971144,40.45854699974874],[-79.86727538892133,40.45812540288935],[-79.86772099964747,40.45736599999243],[-79.8678540562773,40.45714000959226],[-79.86810899985564,40.456706999967956],[-79.867717,40.45662],[-79.86770208110525,40.45661668891877],[-79.866541,40.456359],[-79.86632473737316,40.45631100293741],[-79.866149,40.456272],[-79.865728,40.4561],[-79.865787,40.455799],[-79.86589497261043,40.45525403013513],[-79.86611539285231,40.454141503644145],[-79.86612781057813,40.45407882769012],[-79.866231,40.453558],[-79.86633660650335,40.45302925871479],[-79.86638,40.452812],[-79.866469,40.452404],[-79.8665746642001,40.451922991327876],[-79.866737,40.451184],[-79.86681781607679,40.450818531741625],[-79.866827,40.450777],[-79.866852,40.450656],[-79.866871,40.450568],[-79.867271,40.450568],[-79.867442,40.450544],[-79.867958,40.450476],[-79.86813,40.450454],[-79.868238,40.450448],[-79.868565,40.450431],[-79.868674,40.450426],[-79.868779,40.450409],[-79.869095,40.450359],[-79.869201,40.450343],[-79.869392,40.450283],[-79.869704,40.450187],[-79.869966,40.450106],[-79.870158,40.450047],[-79.870347,40.450064],[-79.870917,40.450117],[-79.871107,40.450135],[-79.871197,40.450141],[-79.87147,40.450162],[-79.871561,40.450169],[-79.871775,40.450018],[-79.872418,40.449568],[-79.872633,40.449418],[-79.872938,40.44949],[-79.873855,40.449708],[-79.874161,40.449781],[-79.87451,40.449882],[-79.874635,40.449876],[-79.875714,40.449829],[-79.876095,40.44989],[-79.876578,40.449969],[-79.876688,40.449968],[-79.87713,40.449968],[-79.877242,40.449966],[-79.87758,40.449964],[-79.877693,40.449964],[-79.877812,40.449927],[-79.87795262024159,40.44988406552848],[-79.87811662722822,40.44983399056617],[-79.878169,40.449818],[-79.878289,40.449782],[-79.878437,40.449785],[-79.878881,40.449794],[-79.87890996283265,40.449820384988904],[-79.879072,40.449968],[-79.87902924014365,40.44979795498988],[-79.879029,40.449797],[-79.879255,40.449756],[-79.8793,40.449747],[-79.879435,40.449721],[-79.879481,40.449713],[-79.87950651374247,40.4497079602484],[-79.879562,40.449697],[-79.87971571385302,40.44966916703896],[-79.87979057124558,40.44965561261397],[-79.879805,40.449653],[-79.87988335479899,40.449638666805065],[-79.879887,40.449638],[-79.879993,40.449618],[-79.880132,40.449592],[-79.88017422324691,40.44958150382563],[-79.880309,40.449548],[-79.88035328523505,40.44953745589642],[-79.880414,40.449523],[-79.88045023459216,40.44951437271615],[-79.880477,40.449508],[-79.88047699987759,40.44950800030312],[-79.880372,40.449768],[-79.880588492682,40.44948067330684],[-79.880589,40.44948],[-79.88068094462739,40.449458013241276],[-79.880681,40.449458],[-79.88068106946018,40.449457985599715],[-79.880927,40.449407],[-79.881041,40.449385],[-79.881075,40.449378],[-79.881181,40.449358],[-79.881216,40.449352],[-79.881299,40.449338],[-79.88136025362724,40.44932808611813],[-79.881472,40.44931],[-79.8815271300394,40.44931800274765],[-79.881534,40.449319],[-79.88153400007546,40.449319000043126],[-79.88153655850103,40.449320462000586],[-79.881548,40.449327],[-79.8815543557724,40.449330611234316],[-79.881592,40.449352],[-79.881614,40.449379],[-79.881728,40.44934],[-79.88207,40.449226],[-79.88214633782393,40.44920143913491],[-79.882185,40.449189],[-79.882288,40.449183],[-79.88253668972798,40.44917016440114],[-79.882598,40.449167],[-79.8826791,40.4491548],[-79.8827371,40.4491505],[-79.8828437,40.4491363],[-79.8829401,40.4491133],[-79.8831084,40.4490809],[-79.8831564,40.4490717],[-79.8832813,40.4490476],[-79.8832938980821,40.449045174155714],[-79.8834049,40.4490238],[-79.88351799634867,40.4490090004778],[-79.883518,40.449009],[-79.883568,40.448999],[-79.8836446258067,40.44898542365587],[-79.883901,40.44894],[-79.88395610218673,40.44893052931165],[-79.884029,40.448918],[-79.88403481352748,40.44894178261244],[-79.88404,40.448963],[-79.88405972058942,40.44903906513065],[-79.884075,40.449098],[-79.88407732592518,40.449106916046524],[-79.884087,40.449144],[-79.8841748,40.4491692],[-79.8841966,40.4491755],[-79.8845159,40.4492671],[-79.88458488060967,40.44928691659101],[-79.884589,40.4492881],[-79.884666,40.44914],[-79.884939,40.448653],[-79.88502874107705,40.44849324115953],[-79.88503,40.448491],[-79.885074,40.448412],[-79.885207,40.448178],[-79.88524113916108,40.44811882545411],[-79.885252,40.4481],[-79.885297,40.44802],[-79.885322,40.447977],[-79.885368,40.447886],[-79.885422,40.447776],[-79.88544325304478,40.44773501198507],[-79.885464,40.447695],[-79.88549485997686,40.447647135546106],[-79.885513,40.447619],[-79.88558,40.447519],[-79.88560502840012,40.44747495001579],[-79.885655,40.447387],[-79.8857,40.447309],[-79.88572372072967,40.447266302686586],[-79.885745,40.447228],[-79.88578333540278,40.447161533582246],[-79.885884,40.446987],[-79.885901,40.446958],[-79.8859239,40.4469166],[-79.88592444896925,40.44691676135837],[-79.886143,40.446981],[-79.8862626028646,40.4470203629681],[-79.88638,40.447059],[-79.88705585901054,40.4472837868106],[-79.88742684249074,40.44740717377741],[-79.887733,40.447509],[-79.888184,40.447659],[-79.888315,40.44766],[-79.888329,40.447661],[-79.888384,40.447702],[-79.88853771839982,40.44780966269248],[-79.888641,40.447882],[-79.8886826083183,40.44791127992769],[-79.888749,40.447958],[-79.889069,40.448337],[-79.88924082258256,40.44853995163818],[-79.88977,40.449165],[-79.890102,40.449397],[-79.890509,40.449683],[-79.890645,40.449767],[-79.890972,40.449968],[-79.89102,40.449989],[-79.891061,40.450006],[-79.891209,40.450069],[-79.891451,40.450146],[-79.89218,40.450377],[-79.892423,40.450455],[-79.892423,40.45045499984142],[-79.89242299999265,40.45045499983707],[-79.89242299999265,40.45026600033012],[-79.892423,40.45026600030012],[-79.892423,40.450103],[-79.892424,40.45007],[-79.892429,40.449972],[-79.892431,40.44994],[-79.892436,40.449919],[-79.892452,40.449857],[-79.892458,40.449837],[-79.8924622,40.4498211],[-79.892529,40.449568],[-79.89261180094921,40.449255455572015],[-79.89265664202036,40.44908619631754],[-79.892742,40.448764],[-79.892759,40.448701],[-79.892723,40.448492],[-79.892712,40.448427],[-79.892682,40.448232],[-79.892672,40.448168],[-79.892699,40.448099],[-79.8927001651314,40.448096065594974],[-79.89278,40.447895],[-79.892808,40.447827],[-79.892846,40.447761],[-79.892963,40.447565],[-79.8929969,40.4475068],[-79.89302,40.44729],[-79.89304133970484,40.44702639188144],[-79.893071,40.44666],[-79.8930909,40.4464608],[-79.89313,40.446249],[-79.8932056195606,40.44589394253187],[-79.893258,40.445648],[-79.89329006651441,40.44549885342134],[-79.893301,40.445448],[-79.893326,40.445271],[-79.89339764922717,40.44477134091572],[-79.893402,40.444741],[-79.893428,40.444565],[-79.89346,40.444407],[-79.893556,40.443936],[-79.893589,40.44378],[-79.893611,40.443705],[-79.89362416718788,40.44366097835696],[-79.893678,40.443481],[-79.893701,40.443407],[-79.893724,40.443333],[-79.893795,40.443111],[-79.893819,40.443038],[-79.893839,40.442963],[-79.893902,40.442738],[-79.893923,40.442664],[-79.893944,40.442591],[-79.89394596814657,40.442584429418396],[-79.894009,40.442374],[-79.894032,40.442302],[-79.894054,40.442226],[-79.894114,40.44203],[-79.894119,40.441997],[-79.894134,40.441919],[-79.894158,40.441847],[-79.89423061872697,40.44163979456574],[-79.89423099963912,40.44163799974514],[-79.89424192828601,40.4416101832691],[-79.894242,40.44161],[-79.89424834908502,40.44158968292797],[-79.8942569995784,40.44156199998105],[-79.89427185541668,40.44150933061245],[-79.89427389758654,40.44150209037496],[-79.894279,40.441484],[-79.894336,40.44129],[-79.89433753544598,40.4412828985623],[-79.89434399961702,40.44125300029827],[-79.8943552310719,40.441206892883926],[-79.89435523131871,40.4412068924811],[-79.894363,40.441175],[-79.894394,40.441041],[-79.89445429422493,40.440787889868275],[-79.89449,40.440638],[-79.89450824053895,40.440562187759944],[-79.894522,40.440505],[-79.89454335011447,40.44041492920454],[-79.894554,40.44037],[-79.89463007324866,40.44004568772937],[-79.894649,40.439965],[-79.8946765,40.4398531],[-79.89468198014944,40.43983107976316],[-79.894682,40.439831],[-79.8947020299801,40.439743368837064],[-79.894706,40.439726],[-79.89471324182536,40.439695369035995],[-79.89478,40.439413],[-79.89480407365622,40.43931670537515],[-79.894806,40.439309],[-79.89481757000122,40.439257210470714],[-79.894827,40.439215],[-79.89486232680333,40.43906282300106],[-79.894892,40.438935],[-79.89490498741262,40.43888248567943],[-79.894915,40.438842],[-79.89491024429125,40.438827138410176],[-79.894907,40.438817],[-79.89488609620592,40.43874333901136],[-79.894886,40.438743],[-79.894879,40.438719],[-79.89487900003103,40.43871899981581],[-79.894911,40.438529],[-79.89497139782458,40.43818533637813],[-79.895011,40.43796],[-79.895044,40.437771],[-79.895042,40.43775],[-79.895039,40.437688],[-79.8950388804071,40.43768560814206],[-79.895038,40.437668],[-79.895034,40.437579],[-79.89503293113785,40.43754729042305],[-79.895025,40.437312],[-79.895022,40.437223],[-79.89501,40.437137],[-79.89499275389973,40.43700216685248],[-79.894977,40.436879],[-79.894966,40.436793],[-79.894984,40.436717],[-79.895039,40.436493],[-79.895058,40.436418],[-79.895107,40.436334],[-79.895258,40.436082],[-79.895308,40.435999],[-79.895322,40.43597],[-79.89534042022476,40.4359347969038],[-79.895367,40.435884],[-79.895382,40.435856],[-79.895393,40.435634],[-79.895427,40.434969],[-79.89544197424135,40.43478008767841],[-79.89544396656927,40.43475495282944],[-79.8954447,40.4347457]],[[-79.8920380000282,40.4501770002118],[-79.89176799969144,40.45009800024618],[-79.89199583377875,40.45016466270031],[-79.8920380000282,40.4501770002118]],[[-79.87175100011554,40.44065800004815],[-79.87175078947216,40.440661641330884],[-79.87174721123935,40.44066037150303],[-79.87175100011554,40.44065800004815]],[[-79.86151255500087,40.4382190890266],[-79.86149799956848,40.438222000228535],[-79.86150284472659,40.43821564308626],[-79.86151255500087,40.4382190890266]],[[-79.85932800042208,40.442417000064324],[-79.85915960032052,40.44246912375214],[-79.85878199990081,40.442585999729125],[-79.85932800042208,40.442417000064324]]]}}]}